{
"type": "FeatureCollection",
"name": "Nacional_opt",
"crs": { "type": "name", "properties": { "name": "urn:ogc:def:crs:OGC:1.3:CRS84" } },
"features": [
{ "type": "Feature", "properties": { "NOMGEO": "Estados Unidos Mexicanos", "CVEGEO": "00", "POB1": 126014024.0, "POB84": 61473390.0, "POB42": 64540634.0 }, "geometry": { "type": "MultiPolygon", "coordinates": [ [ [ [ -96.22712, 15.68706 ], [ -96.22825, 15.68527 ], [ -96.23133, 15.68723 ], [ -96.22712, 15.68706 ] ] ], [ [ [ -96.22357, 15.69021 ], [ -96.22333, 15.69084 ], [ -96.2221, 15.69094 ], [ -96.22357, 15.69021 ] ] ], [ [ [ -96.16022, 15.71818 ], [ -96.16145, 15.71639 ], [ -96.164, 15.71818 ], [ -96.16022, 15.71818 ] ] ], [ [ [ -96.11804, 15.74757 ], [ -96.1186, 15.74704 ], [ -96.11976, 15.74746 ], [ -96.11804, 15.74757 ] ] ], [ [ [ -96.11707, 15.74778 ], [ -96.1176, 15.748 ], [ -96.11725, 15.74824 ], [ -96.11707, 15.74778 ] ] ], [ [ [ -96.11584, 15.74861 ], [ -96.11597, 15.74853 ], [ -96.11608, 15.74892 ], [ -96.11584, 15.74861 ] ] ], [ [ [ -96.11624, 15.74914 ], [ -96.11643, 15.74887 ], [ -96.11653, 15.74915 ], [ -96.11624, 15.74914 ] ] ], [ [ [ -96.08276, 15.76404 ], [ -96.08382, 15.76253 ], [ -96.0851, 15.76372 ], [ -96.08276, 15.76404 ] ] ], [ [ [ -96.09504, 15.77163 ], [ -96.09509, 15.77183 ], [ -96.09473, 15.77196 ], [ -96.09504, 15.77163 ] ] ], [ [ [ -97.35188, 15.93637 ], [ -97.35279, 15.93662 ], [ -97.35296, 15.93761 ], [ -97.35188, 15.93637 ] ] ], [ [ [ -95.57428, 15.94035 ], [ -95.57688, 15.9414 ], [ -95.57637, 15.94187 ], [ -95.57428, 15.94035 ] ] ], [ [ [ -99.90142, 16.82274 ], [ -99.90561, 16.81755 ], [ -99.91815, 16.82271 ], [ -99.90142, 16.82274 ] ] ], [ [ [ -101.65459, 17.6788 ], [ -101.65192, 17.67444 ], [ -101.65959, 17.67329 ], [ -101.65459, 17.6788 ] ] ], [ [ [ -114.68961, 18.37114 ], [ -114.6805, 18.36131 ], [ -114.69837, 18.34516 ], [ -114.7521, 18.33886 ], [ -114.75638, 18.3653 ], [ -114.68961, 18.37114 ] ] ], [ [ [ -87.39198, 18.37447 ], [ -87.39463, 18.38077 ], [ -87.38855, 18.37704 ], [ -87.39198, 18.37447 ] ] ], [ [ [ -87.40839, 18.38029 ], [ -87.40879, 18.39014 ], [ -87.40703, 18.39037 ], [ -87.40839, 18.38029 ] ] ], [ [ [ -87.42074, 18.39585 ], [ -87.42133, 18.39929 ], [ -87.41749, 18.39957 ], [ -87.42074, 18.39585 ] ] ], [ [ [ -87.42915, 18.4048 ], [ -87.43007, 18.40952 ], [ -87.42604, 18.40547 ], [ -87.42915, 18.4048 ] ] ], [ [ [ -104.48488, 19.10282 ], [ -104.48734, 19.10121 ], [ -104.48882, 19.10357 ], [ -104.48488, 19.10282 ] ] ], [ [ [ -87.43756, 18.42317 ], [ -87.43453, 18.42308 ], [ -87.43414, 18.42093 ], [ -87.43756, 18.42317 ] ] ], [ [ [ -110.94026, 18.83432 ], [ -110.90774, 18.77891 ], [ -110.92009, 18.7323 ], [ -110.95147, 18.71922 ], [ -110.97082, 18.74528 ], [ -111.01554, 18.75374 ], [ -111.03586, 18.78792 ], [ -111.04911, 18.77986 ], [ -111.05559, 18.78069 ], [ -111.04097, 18.79844 ], [ -111.05206, 18.8163 ], [ -111.01294, 18.82537 ], [ -110.98634, 18.86114 ], [ -110.94026, 18.83432 ] ] ], [ [ [ -87.4474, 18.46004 ], [ -87.44529, 18.46242 ], [ -87.43919, 18.45273 ], [ -87.43924, 18.42846 ], [ -87.4474, 18.46004 ] ] ], [ [ [ -87.44705, 18.48022 ], [ -87.44058, 18.51869 ], [ -87.43716, 18.51613 ], [ -87.44705, 18.48022 ] ] ], [ [ [ -104.81353, 19.2259 ], [ -104.81636, 19.2209 ], [ -104.8149, 19.23129 ], [ -104.81353, 19.2259 ] ] ], [ [ [ -104.81339, 19.23093 ], [ -104.81482, 19.2331 ], [ -104.81297, 19.23426 ], [ -104.81339, 19.23093 ] ] ], [ [ [ -87.43921, 18.56036 ], [ -87.43674, 18.56232 ], [ -87.43461, 18.55897 ], [ -87.43921, 18.56036 ] ] ], [ [ [ -87.38334, 18.37506 ], [ -87.33216, 18.44377 ], [ -87.33702, 18.52302 ], [ -87.31443, 18.55545 ], [ -87.33098, 18.52643 ], [ -87.32293, 18.45656 ], [ -87.36192, 18.38515 ], [ -87.38334, 18.37506 ] ] ], [ [ [ -96.09295, 19.17618 ], [ -96.09213, 19.17725 ], [ -96.09098, 19.17546 ], [ -96.09295, 19.17618 ] ] ], [ [ [ -87.43924, 18.58748 ], [ -87.43688, 18.58975 ], [ -87.43556, 18.58894 ], [ -87.43924, 18.58748 ] ] ], [ [ [ -104.87651, 19.27237 ], [ -104.87747, 19.27275 ], [ -104.87686, 19.27373 ], [ -104.87651, 19.27237 ] ] ], [ [ [ -87.44246, 18.60092 ], [ -87.44013, 18.61328 ], [ -87.4366, 18.60948 ], [ -87.44246, 18.60092 ] ] ], [ [ [ -87.31779, 18.57781 ], [ -87.34103, 18.5735 ], [ -87.32053, 18.59881 ], [ -87.30945, 18.60358 ], [ -87.31779, 18.57781 ] ] ], [ [ [ -112.06613, 18.99215 ], [ -112.06624, 18.99336 ], [ -112.06565, 18.99325 ], [ -112.06613, 18.99215 ] ] ], [ [ [ -104.96095, 19.30769 ], [ -104.96059, 19.30813 ], [ -104.95954, 19.30709 ], [ -104.96095, 19.30769 ] ] ], [ [ [ -104.95569, 19.30943 ], [ -104.95658, 19.31034 ], [ -104.95561, 19.31058 ], [ -104.95569, 19.30943 ] ] ], [ [ [ -104.95194, 19.31463 ], [ -104.95195, 19.31527 ], [ -104.95135, 19.31496 ], [ -104.95194, 19.31463 ] ] ], [ [ [ -87.43336, 18.6383 ], [ -87.42028, 18.66001 ], [ -87.42835, 18.63292 ], [ -87.43638, 18.62366 ], [ -87.43336, 18.6383 ] ] ], [ [ [ -87.41062, 18.6798 ], [ -87.39473, 18.71188 ], [ -87.40254, 18.68171 ], [ -87.41062, 18.6798 ] ] ], [ [ [ -105.03395, 19.39026 ], [ -105.03409, 19.38897 ], [ -105.036, 19.38903 ], [ -105.03395, 19.39026 ] ] ], [ [ [ -87.39269, 18.72317 ], [ -87.38952, 18.72533 ], [ -87.38768, 18.72233 ], [ -87.39269, 18.72317 ] ] ], [ [ [ -87.38751, 18.73252 ], [ -87.38517, 18.73639 ], [ -87.38399, 18.73253 ], [ -87.38751, 18.73252 ] ] ], [ [ [ -87.30327, 18.739 ], [ -87.30529, 18.73752 ], [ -87.3069, 18.73967 ], [ -87.30327, 18.739 ] ] ], [ [ [ -87.24535, 18.6835 ], [ -87.24739, 18.64527 ], [ -87.26454, 18.61879 ], [ -87.25272, 18.6674 ], [ -87.27383, 18.73944 ], [ -87.24535, 18.6835 ] ] ], [ [ [ -87.2802, 18.74005 ], [ -87.28072, 18.74359 ], [ -87.27938, 18.7417 ], [ -87.2802, 18.74005 ] ] ], [ [ [ -87.37996, 18.74124 ], [ -87.37238, 18.75303 ], [ -87.37356, 18.74364 ], [ -87.37996, 18.74124 ] ] ], [ [ [ -87.31802, 18.74693 ], [ -87.31782, 18.74842 ], [ -87.31523, 18.74715 ], [ -87.31802, 18.74693 ] ] ], [ [ [ -87.29834, 18.74826 ], [ -87.30344, 18.7448 ], [ -87.30287, 18.74993 ], [ -87.29834, 18.74826 ] ] ], [ [ [ -87.32184, 18.754 ], [ -87.32032, 18.75593 ], [ -87.31902, 18.75335 ], [ -87.32184, 18.754 ] ] ], [ [ [ -105.03476, 19.44047 ], [ -105.03573, 19.43961 ], [ -105.03636, 19.44011 ], [ -105.03476, 19.44047 ] ] ], [ [ [ -87.2905, 18.75276 ], [ -87.28978, 18.75452 ], [ -87.28902, 18.75438 ], [ -87.2905, 18.75276 ] ] ], [ [ [ -87.32194, 18.75892 ], [ -87.32162, 18.76249 ], [ -87.32037, 18.76217 ], [ -87.32194, 18.75892 ] ] ], [ [ [ -87.33177, 18.75855 ], [ -87.32673, 18.76496 ], [ -87.32503, 18.76165 ], [ -87.33177, 18.75855 ] ] ], [ [ [ -87.35777, 18.76682 ], [ -87.35426, 18.7705 ], [ -87.35343, 18.769 ], [ -87.35777, 18.76682 ] ] ], [ [ [ -87.3611, 18.77198 ], [ -87.35672, 18.7735 ], [ -87.35803, 18.77133 ], [ -87.3611, 18.77198 ] ] ], [ [ [ -87.31934, 18.76663 ], [ -87.32008, 18.77017 ], [ -87.3181, 18.77012 ], [ -87.31934, 18.76663 ] ] ], [ [ [ -87.34938, 18.77867 ], [ -87.33912, 18.78611 ], [ -87.34236, 18.78018 ], [ -87.34938, 18.77867 ] ] ], [ [ [ -105.06344, 19.47632 ], [ -105.06627, 19.47635 ], [ -105.06463, 19.4771 ], [ -105.06344, 19.47632 ] ] ], [ [ [ -105.06449, 19.47898 ], [ -105.06388, 19.47785 ], [ -105.06698, 19.47714 ], [ -105.06843, 19.47778 ], [ -105.06449, 19.47898 ] ] ], [ [ [ -105.08499, 19.51462 ], [ -105.0852, 19.51382 ], [ -105.08619, 19.51445 ], [ -105.08499, 19.51462 ] ] ], [ [ [ -105.08549, 19.5225 ], [ -105.08563, 19.5211 ], [ -105.08699, 19.5215 ], [ -105.08549, 19.5225 ] ] ], [ [ [ -105.09088, 19.52464 ], [ -105.09102, 19.5233 ], [ -105.09589, 19.52598 ], [ -105.09088, 19.52464 ] ] ], [ [ [ -105.09309, 19.5302 ], [ -105.09446, 19.52916 ], [ -105.09416, 19.53043 ], [ -105.09309, 19.5302 ] ] ], [ [ [ -105.08786, 19.53163 ], [ -105.08953, 19.53184 ], [ -105.08965, 19.53322 ], [ -105.08786, 19.53163 ] ] ], [ [ [ -105.08769, 19.53574 ], [ -105.0872, 19.53433 ], [ -105.08929, 19.53401 ], [ -105.08769, 19.53574 ] ] ], [ [ [ -105.09282, 19.53526 ], [ -105.09212, 19.53639 ], [ -105.09187, 19.53604 ], [ -105.09282, 19.53526 ] ] ], [ [ [ -105.09207, 19.53929 ], [ -105.09323, 19.53793 ], [ -105.09512, 19.53878 ], [ -105.09207, 19.53929 ] ] ], [ [ [ -105.11318, 19.54833 ], [ -105.11601, 19.5473 ], [ -105.11568, 19.54878 ], [ -105.11318, 19.54833 ] ] ], [ [ [ -105.10805, 19.54453 ], [ -105.1133, 19.54543 ], [ -105.11126, 19.5505 ], [ -105.10805, 19.54453 ] ] ], [ [ [ -105.10661, 19.55635 ], [ -105.1064, 19.55609 ], [ -105.10795, 19.55573 ], [ -105.10661, 19.55635 ] ] ], [ [ [ -110.79628, 19.3027 ], [ -110.81265, 19.29823 ], [ -110.81885, 19.30652 ], [ -110.80102, 19.33487 ], [ -110.79628, 19.3027 ] ] ], [ [ [ -105.11164, 19.55734 ], [ -105.11717, 19.55497 ], [ -105.11357, 19.56152 ], [ -105.11164, 19.55734 ] ] ], [ [ [ -105.13108, 19.57327 ], [ -105.13092, 19.57392 ], [ -105.13056, 19.57367 ], [ -105.13108, 19.57327 ] ] ], [ [ [ -105.13247, 19.57366 ], [ -105.13451, 19.57365 ], [ -105.13428, 19.57403 ], [ -105.13247, 19.57366 ] ] ], [ [ [ -105.1358, 19.57377 ], [ -105.13694, 19.57436 ], [ -105.13529, 19.57519 ], [ -105.1358, 19.57377 ] ] ], [ [ [ -105.14661, 19.57879 ], [ -105.14787, 19.57865 ], [ -105.1478, 19.57903 ], [ -105.14661, 19.57879 ] ] ], [ [ [ -105.14691, 19.58037 ], [ -105.14748, 19.58068 ], [ -105.14668, 19.58105 ], [ -105.14691, 19.58037 ] ] ], [ [ [ -87.64029, 19.18454 ], [ -87.64708, 19.18639 ], [ -87.64566, 19.18798 ], [ -87.64029, 19.18454 ] ] ], [ [ [ -87.63402, 19.19306 ], [ -87.62753, 19.1967 ], [ -87.62729, 19.19565 ], [ -87.63402, 19.19306 ] ] ], [ [ [ -87.62853, 19.20256 ], [ -87.63104, 19.20272 ], [ -87.62867, 19.20447 ], [ -87.62853, 19.20256 ] ] ], [ [ [ -87.65202, 19.21554 ], [ -87.64024, 19.21852 ], [ -87.61456, 19.23603 ], [ -87.63131, 19.2215 ], [ -87.64095, 19.21705 ], [ -87.65202, 19.21554 ] ] ], [ [ [ -87.6054, 19.23411 ], [ -87.60603, 19.23506 ], [ -87.60322, 19.23692 ], [ -87.6054, 19.23411 ] ] ], [ [ [ -87.46427, 19.32895 ], [ -87.46554, 19.32655 ], [ -87.47124, 19.33483 ], [ -87.46427, 19.32895 ] ] ], [ [ [ -87.48344, 19.34448 ], [ -87.47927, 19.33541 ], [ -87.51498, 19.3573 ], [ -87.48344, 19.34448 ] ] ], [ [ [ -87.56545, 19.39726 ], [ -87.56555, 19.39371 ], [ -87.57161, 19.39435 ], [ -87.56545, 19.39726 ] ] ], [ [ [ -87.54939, 19.41238 ], [ -87.54946, 19.40838 ], [ -87.5555, 19.4107 ], [ -87.54939, 19.41238 ] ] ], [ [ [ -87.66185, 19.50469 ], [ -87.65963, 19.50786 ], [ -87.65852, 19.50561 ], [ -87.66185, 19.50469 ] ] ], [ [ [ -87.66187, 19.50982 ], [ -87.65729, 19.51713 ], [ -87.65719, 19.51254 ], [ -87.66187, 19.50982 ] ] ], [ [ [ -87.57696, 19.56475 ], [ -87.57742, 19.5652 ], [ -87.5769, 19.56603 ], [ -87.57696, 19.56475 ] ] ], [ [ [ -87.5675, 19.57716 ], [ -87.56634, 19.57766 ], [ -87.56617, 19.57738 ], [ -87.5675, 19.57716 ] ] ], [ [ [ -87.65998, 19.58748 ], [ -87.66005, 19.58781 ], [ -87.65945, 19.58801 ], [ -87.65998, 19.58748 ] ] ], [ [ [ -87.69058, 19.58793 ], [ -87.67546, 19.58741 ], [ -87.69466, 19.58723 ], [ -87.71305, 19.58975 ], [ -87.69058, 19.58793 ] ] ], [ [ [ -87.64842, 19.58725 ], [ -87.64703, 19.58742 ], [ -87.6472, 19.58685 ], [ -87.64842, 19.58725 ] ] ], [ [ [ -87.56257, 19.58045 ], [ -87.56151, 19.58116 ], [ -87.56145, 19.58087 ], [ -87.56257, 19.58045 ] ] ], [ [ [ -87.63907, 19.58799 ], [ -87.63595, 19.58891 ], [ -87.63628, 19.58795 ], [ -87.63907, 19.58799 ] ] ], [ [ [ -87.55821, 19.58315 ], [ -87.5585, 19.58366 ], [ -87.55771, 19.58357 ], [ -87.55821, 19.58315 ] ] ], [ [ [ -87.49925, 19.59127 ], [ -87.49933, 19.59262 ], [ -87.49772, 19.59259 ], [ -87.49925, 19.59127 ] ] ], [ [ [ -87.49176, 19.59492 ], [ -87.49391, 19.59514 ], [ -87.49082, 19.59888 ], [ -87.49176, 19.59492 ] ] ], [ [ [ -87.46465, 19.5977 ], [ -87.46352, 19.59838 ], [ -87.46232, 19.5967 ], [ -87.46465, 19.5977 ] ] ], [ [ [ -87.45557, 19.5958 ], [ -87.45827, 19.59614 ], [ -87.45869, 19.59778 ], [ -87.45557, 19.5958 ] ] ], [ [ [ -87.48321, 19.60443 ], [ -87.4789, 19.59982 ], [ -87.48462, 19.59855 ], [ -87.48321, 19.60443 ] ] ], [ [ [ -87.46269, 19.59884 ], [ -87.47258, 19.60074 ], [ -87.46485, 19.60335 ], [ -87.46269, 19.59884 ] ] ], [ [ [ -87.52088, 19.60625 ], [ -87.52342, 19.60475 ], [ -87.5234, 19.6129 ], [ -87.52088, 19.60625 ] ] ], [ [ [ -87.4943, 19.60711 ], [ -87.49513, 19.607 ], [ -87.49562, 19.60994 ], [ -87.4943, 19.60711 ] ] ], [ [ [ -87.4664, 19.60696 ], [ -87.46607, 19.61328 ], [ -87.46511, 19.61329 ], [ -87.4664, 19.60696 ] ] ], [ [ [ -87.69936, 19.64265 ], [ -87.69938, 19.64624 ], [ -87.69674, 19.64545 ], [ -87.69936, 19.64265 ] ] ], [ [ [ -87.51748, 19.62781 ], [ -87.52067, 19.62319 ], [ -87.51906, 19.62857 ], [ -87.51748, 19.62781 ] ] ], [ [ [ -87.68007, 19.64199 ], [ -87.68144, 19.64569 ], [ -87.67577, 19.64511 ], [ -87.68007, 19.64199 ] ] ], [ [ [ -87.70399, 19.64631 ], [ -87.71345, 19.64879 ], [ -87.70956, 19.65011 ], [ -87.70399, 19.64631 ] ] ], [ [ [ -87.45824, 19.69085 ], [ -87.46427, 19.6947 ], [ -87.46166, 19.69581 ], [ -87.45824, 19.69085 ] ] ], [ [ [ -87.46433, 19.69619 ], [ -87.46425, 19.69377 ], [ -87.46852, 19.69533 ], [ -87.46433, 19.69619 ] ] ], [ [ [ -87.46993, 19.70317 ], [ -87.46831, 19.69917 ], [ -87.47819, 19.70427 ], [ -87.46993, 19.70317 ] ] ], [ [ [ -87.47953, 19.70396 ], [ -87.47908, 19.70526 ], [ -87.47845, 19.70463 ], [ -87.47953, 19.70396 ] ] ], [ [ [ -87.4853, 19.70754 ], [ -87.47974, 19.70463 ], [ -87.50587, 19.71001 ], [ -87.4853, 19.70754 ] ] ], [ [ [ -91.95547, 20.19653 ], [ -91.95546, 20.19611 ], [ -91.95774, 20.19674 ], [ -91.95547, 20.19653 ] ] ], [ [ [ -91.97656, 20.20319 ], [ -91.97655, 20.20277 ], [ -91.97896, 20.20403 ], [ -91.97656, 20.20319 ] ] ], [ [ [ -91.96411, 20.20241 ], [ -91.96232, 20.20862 ], [ -91.96101, 20.20348 ], [ -91.96411, 20.20241 ] ] ], [ [ [ -105.29323, 20.54443 ], [ -105.29343, 20.54519 ], [ -105.29138, 20.5455 ], [ -105.29323, 20.54443 ] ] ], [ [ [ -90.49883, 20.34307 ], [ -90.49879, 20.34411 ], [ -90.49631, 20.34371 ], [ -90.49883, 20.34307 ] ] ], [ [ [ -105.27134, 21.04925 ], [ -105.27183, 21.04638 ], [ -105.27474, 21.0473 ], [ -105.27134, 21.04925 ] ] ], [ [ [ -90.47091, 20.59839 ], [ -90.47825, 20.61826 ], [ -90.46965, 20.65307 ], [ -90.47091, 20.59839 ] ] ], [ [ [ -90.46239, 20.63938 ], [ -90.46298, 20.64755 ], [ -90.46944, 20.65843 ], [ -90.46158, 20.65552 ], [ -90.46239, 20.63938 ] ] ], [ [ [ -90.45686, 20.67453 ], [ -90.4541, 20.65589 ], [ -90.4668, 20.67565 ], [ -90.4586, 20.69374 ], [ -90.45686, 20.67453 ] ] ], [ [ [ -92.2389, 20.8985 ], [ -92.2453, 20.9018 ], [ -92.2247, 20.9137 ], [ -92.2389, 20.8985 ] ] ], [ [ [ -92.2011, 20.9241 ], [ -92.2012, 20.9252 ], [ -92.2002, 20.9246 ], [ -92.2011, 20.9241 ] ] ], [ [ [ -92.1996, 20.9262 ], [ -92.1973, 20.9288 ], [ -92.197, 20.9275 ], [ -92.1996, 20.9262 ] ] ], [ [ [ -92.2057, 20.9194 ], [ -92.2157, 20.9139 ], [ -92.2007, 20.9346 ], [ -92.2057, 20.9194 ] ] ], [ [ [ -92.3071, 20.9764 ], [ -92.3242, 20.9742 ], [ -92.3123, 20.9809 ], [ -92.3249, 20.9839 ], [ -92.3025, 20.9894 ], [ -92.3071, 20.9764 ] ] ], [ [ [ -86.86255, 20.54731 ], [ -86.85909, 20.54719 ], [ -86.8629, 20.54573 ], [ -86.86255, 20.54731 ] ] ], [ [ [ -86.79356, 20.46484 ], [ -86.83059, 20.43806 ], [ -86.89847, 20.34419 ], [ -86.99438, 20.27454 ], [ -87.01697, 20.29912 ], [ -87.01699, 20.41163 ], [ -86.92749, 20.5508 ], [ -86.89696, 20.56558 ], [ -86.86978, 20.5373 ], [ -86.85112, 20.55033 ], [ -86.81401, 20.54163 ], [ -86.82332, 20.55451 ], [ -86.76871, 20.56064 ], [ -86.72694, 20.59216 ], [ -86.79356, 20.46484 ] ] ], [ [ [ -106.22979, 21.29186 ], [ -106.25668, 21.29292 ], [ -106.27913, 21.31461 ], [ -106.25826, 21.33479 ], [ -106.22813, 21.33259 ], [ -106.22979, 21.29186 ] ] ], [ [ [ -97.22504, 21.46874 ], [ -97.2304, 21.46865 ], [ -97.22849, 21.47267 ], [ -97.22504, 21.46874 ] ] ], [ [ [ -106.3712, 21.48068 ], [ -106.35864, 21.45527 ], [ -106.38033, 21.4484 ], [ -106.38637, 21.41975 ], [ -106.49401, 21.4662 ], [ -106.46054, 21.49455 ], [ -106.3712, 21.48068 ] ] ], [ [ [ -106.59824, 21.69033 ], [ -106.53631, 21.65808 ], [ -106.53737, 21.63279 ], [ -106.5057, 21.60335 ], [ -106.5322, 21.54477 ], [ -106.62897, 21.59861 ], [ -106.65608, 21.65587 ], [ -106.65335, 21.69345 ], [ -106.59824, 21.69033 ] ] ], [ [ [ -106.65772, 21.73945 ], [ -106.67796, 21.72869 ], [ -106.68773, 21.75937 ], [ -106.67321, 21.77485 ], [ -106.65772, 21.73945 ] ] ], [ [ [ -105.88172, 21.85038 ], [ -105.88027, 21.84673 ], [ -105.88028, 21.84255 ], [ -105.88172, 21.85038 ] ] ], [ [ [ -86.73893, 21.24551 ], [ -86.7104, 21.20145 ], [ -86.71845, 21.20555 ], [ -86.74255, 21.23436 ], [ -86.73013, 21.22138 ], [ -86.74859, 21.26484 ], [ -86.73893, 21.24551 ] ] ], [ [ [ -92.0816, 21.8384 ], [ -92.0805, 21.8403 ], [ -92.079, 21.8393 ], [ -92.0816, 21.8384 ] ] ], [ [ [ -88.28375, 21.5631 ], [ -88.28527, 21.5628 ], [ -88.28523, 21.56395 ], [ -88.28375, 21.5631 ] ] ], [ [ [ -86.87045, 21.42868 ], [ -86.87852, 21.42043 ], [ -86.88833, 21.41681 ], [ -86.87482, 21.42633 ], [ -86.88359, 21.43399 ], [ -86.85171, 21.43597 ], [ -86.87045, 21.42868 ] ] ], [ [ [ -86.90193, 21.4573 ], [ -86.90394, 21.45113 ], [ -86.91319, 21.44932 ], [ -86.90193, 21.4573 ] ] ], [ [ [ -86.9318, 21.47421 ], [ -86.92734, 21.4683 ], [ -86.93401, 21.46682 ], [ -86.9318, 21.47421 ] ] ], [ [ [ -86.9132, 21.47191 ], [ -86.91179, 21.46636 ], [ -86.92025, 21.47231 ], [ -86.9132, 21.47191 ] ] ], [ [ [ -86.97203, 21.53099 ], [ -86.97467, 21.52639 ], [ -86.97751, 21.53551 ], [ -86.97203, 21.53099 ] ] ], [ [ [ -86.79152, 21.49404 ], [ -86.78422, 21.458 ], [ -86.80379, 21.53173 ], [ -86.79152, 21.49404 ] ] ], [ [ [ -87.00366, 21.56206 ], [ -87.00934, 21.55971 ], [ -87.00936, 21.56603 ], [ -87.00366, 21.56206 ] ] ], [ [ [ -87.01997, 21.57243 ], [ -87.01913, 21.56956 ], [ -87.02548, 21.57386 ], [ -87.01997, 21.57243 ] ] ], [ [ [ -86.99999, 21.57138 ], [ -86.99251, 21.564 ], [ -87.02312, 21.58022 ], [ -87.03031, 21.57462 ], [ -87.03398, 21.58585 ], [ -86.99999, 21.57138 ] ] ], [ [ [ -87.05749, 21.59269 ], [ -87.04928, 21.58962 ], [ -87.04618, 21.58513 ], [ -87.10607, 21.60128 ], [ -87.12953, 21.56836 ], [ -87.15761, 21.56237 ], [ -87.15131, 21.55711 ], [ -87.16653, 21.55632 ], [ -87.20858, 21.52059 ], [ -87.22289, 21.51653 ], [ -87.20783, 21.52786 ], [ -87.27299, 21.52825 ], [ -87.28985, 21.51112 ], [ -87.28738, 21.52588 ], [ -87.31588, 21.52584 ], [ -87.32781, 21.54945 ], [ -87.38626, 21.50432 ], [ -87.39674, 21.51249 ], [ -87.33492, 21.56618 ], [ -87.28093, 21.54149 ], [ -87.22119, 21.54372 ], [ -87.10253, 21.60542 ], [ -87.05749, 21.59269 ] ] ], [ [ [ -91.3875, 22.1116 ], [ -91.386, 22.1123 ], [ -91.3859, 22.1115 ], [ -91.3875, 22.1116 ] ] ], [ [ [ -91.3816, 22.1157 ], [ -91.3839, 22.1161 ], [ -91.3828, 22.1174 ], [ -91.3816, 22.1157 ] ] ], [ [ [ -91.4091, 22.1178 ], [ -91.4092, 22.1191 ], [ -91.4074, 22.1183 ], [ -91.4091, 22.1178 ] ] ], [ [ [ -91.405, 22.1189 ], [ -91.4045, 22.1176 ], [ -91.4056, 22.1178 ], [ -91.405, 22.1189 ] ] ], [ [ [ -91.3894, 22.1222 ], [ -91.3896, 22.1236 ], [ -91.3881, 22.1228 ], [ -91.3894, 22.1222 ] ] ], [ [ [ -89.66403, 22.36897 ], [ -89.6639, 22.37135 ], [ -89.66263, 22.37154 ], [ -89.66403, 22.36897 ] ] ], [ [ [ -89.6717, 22.36768 ], [ -89.674, 22.36796 ], [ -89.6657, 22.37275 ], [ -89.6717, 22.36768 ] ] ], [ [ [ -89.66858, 22.3799 ], [ -89.668, 22.38062 ], [ -89.66693, 22.38039 ], [ -89.66858, 22.3799 ] ] ], [ [ [ -89.6746, 22.37689 ], [ -89.68015, 22.38031 ], [ -89.67856, 22.3815 ], [ -89.6746, 22.37689 ] ] ], [ [ [ -89.68192, 22.38093 ], [ -89.68003, 22.38371 ], [ -89.67912, 22.38216 ], [ -89.68192, 22.38093 ] ] ], [ [ [ -89.67917, 22.38749 ], [ -89.67964, 22.39012 ], [ -89.67824, 22.38983 ], [ -89.67917, 22.38749 ] ] ], [ [ [ -89.6759, 22.38874 ], [ -89.67557, 22.39039 ], [ -89.67416, 22.38974 ], [ -89.6759, 22.38874 ] ] ], [ [ [ -89.72535, 22.42468 ], [ -89.72929, 22.42455 ], [ -89.72848, 22.42849 ], [ -89.72535, 22.42468 ] ] ], [ [ [ -89.72092, 22.42779 ], [ -89.7207, 22.4285 ], [ -89.72002, 22.42862 ], [ -89.72092, 22.42779 ] ] ], [ [ [ -89.71615, 22.43044 ], [ -89.72023, 22.43052 ], [ -89.7199, 22.43134 ], [ -89.71615, 22.43044 ] ] ], [ [ [ -89.72855, 22.43303 ], [ -89.7285, 22.43348 ], [ -89.72748, 22.43358 ], [ -89.72855, 22.43303 ] ] ], [ [ [ -89.72702, 22.42895 ], [ -89.72865, 22.42879 ], [ -89.7317, 22.42469 ], [ -89.73043, 22.43389 ], [ -89.72702, 22.42895 ] ] ], [ [ [ -89.73959, 22.43301 ], [ -89.74381, 22.43504 ], [ -89.74137, 22.43906 ], [ -89.73959, 22.43301 ] ] ], [ [ [ -89.73303, 22.43915 ], [ -89.73345, 22.4403 ], [ -89.73152, 22.44084 ], [ -89.73303, 22.43915 ] ] ], [ [ [ -89.72543, 22.44269 ], [ -89.72696, 22.43963 ], [ -89.72937, 22.44007 ], [ -89.72543, 22.44269 ] ] ], [ [ [ -89.72589, 22.44414 ], [ -89.72556, 22.44568 ], [ -89.72317, 22.44531 ], [ -89.72589, 22.44414 ] ] ], [ [ [ -89.74477, 22.47206 ], [ -89.744, 22.47588 ], [ -89.74011, 22.4726 ], [ -89.74477, 22.47206 ] ] ], [ [ [ -89.73871, 22.44894 ], [ -89.73867, 22.44022 ], [ -89.75925, 22.47019 ], [ -89.75555, 22.48416 ], [ -89.73871, 22.44894 ] ] ], [ [ [ -89.75115, 22.48444 ], [ -89.75162, 22.48635 ], [ -89.74853, 22.48677 ], [ -89.75115, 22.48444 ] ] ], [ [ [ -89.75409, 22.4933 ], [ -89.74977, 22.49446 ], [ -89.74954, 22.49137 ], [ -89.75409, 22.4933 ] ] ], [ [ [ -89.72461, 22.5001 ], [ -89.72852, 22.49053 ], [ -89.73555, 22.49533 ], [ -89.72461, 22.5001 ] ] ], [ [ [ -89.76093, 22.50602 ], [ -89.76118, 22.50865 ], [ -89.7578, 22.50896 ], [ -89.76093, 22.50602 ] ] ], [ [ [ -89.75698, 22.49102 ], [ -89.75861, 22.47996 ], [ -89.78449, 22.50546 ], [ -89.75698, 22.49102 ] ] ], [ [ [ -89.73848, 22.50759 ], [ -89.73913, 22.51068 ], [ -89.73634, 22.51184 ], [ -89.73848, 22.50759 ] ] ], [ [ [ -89.72016, 22.507 ], [ -89.72023, 22.5107 ], [ -89.71716, 22.51132 ], [ -89.72016, 22.507 ] ] ], [ [ [ -89.73117, 22.51244 ], [ -89.73567, 22.51762 ], [ -89.7313, 22.51891 ], [ -89.73117, 22.51244 ] ] ], [ [ [ -89.75329, 22.51867 ], [ -89.75384, 22.52281 ], [ -89.7501, 22.52005 ], [ -89.75329, 22.51867 ] ] ], [ [ [ -89.74176, 22.51375 ], [ -89.75051, 22.50613 ], [ -89.74351, 22.52299 ], [ -89.74176, 22.51375 ] ] ], [ [ [ -89.75134, 22.52414 ], [ -89.75198, 22.52844 ], [ -89.75087, 22.52871 ], [ -89.75134, 22.52414 ] ] ], [ [ [ -89.74049, 22.53003 ], [ -89.73936, 22.53181 ], [ -89.73832, 22.53106 ], [ -89.74049, 22.53003 ] ] ], [ [ [ -89.73706, 22.52491 ], [ -89.73701, 22.52165 ], [ -89.74027, 22.52248 ], [ -89.74258, 22.53228 ], [ -89.73706, 22.52491 ] ] ], [ [ [ -89.74248, 22.53499 ], [ -89.74302, 22.53895 ], [ -89.74144, 22.53846 ], [ -89.74248, 22.53499 ] ] ], [ [ [ -89.73571, 22.53883 ], [ -89.7374, 22.53647 ], [ -89.74111, 22.541 ], [ -89.73571, 22.53883 ] ] ], [ [ [ -89.76034, 22.56175 ], [ -89.76007, 22.56102 ], [ -89.76324, 22.56116 ], [ -89.76331, 22.56294 ], [ -89.76034, 22.56175 ] ] ], [ [ [ -89.77627, 22.56071 ], [ -89.77806, 22.56262 ], [ -89.77495, 22.56381 ], [ -89.76418, 22.56276 ], [ -89.77627, 22.56071 ] ] ], [ [ [ -89.78074, 22.56263 ], [ -89.78028, 22.56666 ], [ -89.77823, 22.56124 ], [ -89.78074, 22.56263 ] ] ], [ [ [ -89.77742, 22.56697 ], [ -89.77663, 22.56875 ], [ -89.77557, 22.5669 ], [ -89.77742, 22.56697 ] ] ], [ [ [ -89.77526, 22.57075 ], [ -89.77487, 22.57266 ], [ -89.77381, 22.5722 ], [ -89.77526, 22.57075 ] ] ], [ [ [ -89.76424, 22.57693 ], [ -89.76572, 22.57904 ], [ -89.76256, 22.58114 ], [ -89.76424, 22.57693 ] ] ], [ [ [ -89.75846, 22.57535 ], [ -89.75965, 22.5753 ], [ -89.76049, 22.58122 ], [ -89.75846, 22.57535 ] ] ], [ [ [ -89.75753, 22.57012 ], [ -89.75295, 22.58248 ], [ -89.75097, 22.57874 ], [ -89.75753, 22.57012 ] ] ], [ [ [ -89.61914, 22.49546 ], [ -89.60855, 22.45367 ], [ -89.63079, 22.38511 ], [ -89.66021, 22.36545 ], [ -89.66128, 22.37121 ], [ -89.65116, 22.37634 ], [ -89.64714, 22.3882 ], [ -89.66291, 22.37257 ], [ -89.65869, 22.39009 ], [ -89.68716, 22.39762 ], [ -89.67979, 22.38664 ], [ -89.69291, 22.38144 ], [ -89.70215, 22.40845 ], [ -89.72986, 22.42097 ], [ -89.68967, 22.41603 ], [ -89.7016, 22.43247 ], [ -89.72912, 22.43674 ], [ -89.71261, 22.45408 ], [ -89.72958, 22.45829 ], [ -89.71433, 22.46495 ], [ -89.73163, 22.46887 ], [ -89.73255, 22.48609 ], [ -89.70526, 22.49503 ], [ -89.71591, 22.53141 ], [ -89.72764, 22.52161 ], [ -89.73206, 22.53738 ], [ -89.75329, 22.54714 ], [ -89.74422, 22.52332 ], [ -89.75643, 22.53939 ], [ -89.77074, 22.5136 ], [ -89.78969, 22.50399 ], [ -89.79549, 22.51508 ], [ -89.78288, 22.55311 ], [ -89.77452, 22.56019 ], [ -89.76164, 22.55974 ], [ -89.74872, 22.56768 ], [ -89.75104, 22.58536 ], [ -89.66548, 22.55208 ], [ -89.61914, 22.49546 ] ] ], [ [ [ -109.89468, 22.87531 ], [ -109.89419, 22.87546 ], [ -109.89425, 22.87494 ], [ -109.89468, 22.87531 ] ] ], [ [ [ -109.89295, 22.8759 ], [ -109.89331, 22.87573 ], [ -109.89335, 22.87634 ], [ -109.89295, 22.8759 ] ] ], [ [ [ -106.41317, 23.17308 ], [ -106.41321, 23.17333 ], [ -106.41292, 23.1733 ], [ -106.41317, 23.17308 ] ] ], [ [ [ -106.40282, 23.17973 ], [ -106.40395, 23.1784 ], [ -106.40447, 23.17995 ], [ -106.40282, 23.17973 ] ] ], [ [ [ -106.43914, 23.18432 ], [ -106.44063, 23.18378 ], [ -106.44061, 23.18468 ], [ -106.43914, 23.18432 ] ] ], [ [ [ -106.43668, 23.18718 ], [ -106.43658, 23.18775 ], [ -106.43588, 23.18754 ], [ -106.43668, 23.18718 ] ] ], [ [ [ -106.46722, 23.22232 ], [ -106.46355, 23.22773 ], [ -106.463, 23.22524 ], [ -106.46722, 23.22232 ] ] ], [ [ [ -106.46373, 23.22783 ], [ -106.47126, 23.23488 ], [ -106.4666, 23.23908 ], [ -106.46373, 23.22783 ] ] ], [ [ [ -106.47356, 23.25155 ], [ -106.4795, 23.25036 ], [ -106.47939, 23.25666 ], [ -106.47356, 23.25155 ] ] ], [ [ [ -110.14855, 24.25191 ], [ -110.1496, 24.25195 ], [ -110.14913, 24.25255 ], [ -110.14855, 24.25191 ] ] ], [ [ [ -110.33727, 24.28837 ], [ -110.34151, 24.2859 ], [ -110.33961, 24.28908 ], [ -110.33727, 24.28837 ] ] ], [ [ [ -109.8025, 24.13671 ], [ -109.87363, 24.15298 ], [ -109.92195, 24.26036 ], [ -109.91829, 24.29093 ], [ -109.93947, 24.32498 ], [ -109.93425, 24.37593 ], [ -109.81974, 24.20481 ], [ -109.8025, 24.13671 ] ] ], [ [ [ -110.38468, 24.45681 ], [ -110.38488, 24.45712 ], [ -110.38295, 24.45761 ], [ -110.38468, 24.45681 ] ] ], [ [ [ -110.38209, 24.46638 ], [ -110.38851, 24.46547 ], [ -110.38664, 24.46646 ], [ -110.38209, 24.46638 ] ] ], [ [ [ -110.40179, 24.48167 ], [ -110.40847, 24.47989 ], [ -110.40921, 24.48208 ], [ -110.40179, 24.48167 ] ] ], [ [ [ -110.3055, 24.50355 ], [ -110.28911, 24.47285 ], [ -110.32764, 24.40244 ], [ -110.35158, 24.4054 ], [ -110.34963, 24.43336 ], [ -110.37048, 24.42894 ], [ -110.3786, 24.44897 ], [ -110.35451, 24.45651 ], [ -110.37119, 24.45742 ], [ -110.3564, 24.46902 ], [ -110.37652, 24.46751 ], [ -110.36348, 24.48151 ], [ -110.38649, 24.47469 ], [ -110.39325, 24.49733 ], [ -110.3804, 24.50714 ], [ -110.39944, 24.51854 ], [ -110.3541, 24.53146 ], [ -110.3055, 24.50355 ] ] ], [ [ [ -110.3613, 24.55402 ], [ -110.36794, 24.53074 ], [ -110.39906, 24.53635 ], [ -110.38312, 24.55701 ], [ -110.40987, 24.54759 ], [ -110.39236, 24.5633 ], [ -110.41449, 24.56833 ], [ -110.39122, 24.59024 ], [ -110.3613, 24.55402 ] ] ], [ [ [ -110.40123, 24.59911 ], [ -110.39953, 24.59881 ], [ -110.4044, 24.5978 ], [ -110.40123, 24.59911 ] ] ], [ [ [ -110.56029, 24.82248 ], [ -110.56523, 24.81422 ], [ -110.58693, 24.8282 ], [ -110.56626, 24.84008 ], [ -110.56029, 24.82248 ] ] ], [ [ [ -110.60542, 24.84332 ], [ -110.60522, 24.8435 ], [ -110.60526, 24.84328 ], [ -110.60542, 24.84332 ] ] ], [ [ [ -110.58, 24.85299 ], [ -110.58064, 24.85219 ], [ -110.58121, 24.85312 ], [ -110.58, 24.85299 ] ] ], [ [ [ -110.60384, 24.87439 ], [ -110.60362, 24.87718 ], [ -110.60322, 24.87511 ], [ -110.60384, 24.87439 ] ] ], [ [ [ -108.35413, 25.16185 ], [ -108.36873, 25.14887 ], [ -108.37201, 25.1522 ], [ -108.3735, 25.15309 ], [ -108.37631, 25.15693 ], [ -108.37778, 25.1582 ], [ -108.37706, 25.167 ], [ -108.37169, 25.15713 ], [ -108.36303, 25.16862 ], [ -108.36666, 25.15808 ], [ -108.35413, 25.16185 ] ] ], [ [ [ -108.3807, 25.16121 ], [ -108.37854, 25.16014 ], [ -108.37767, 25.15776 ], [ -108.37433, 25.15388 ], [ -108.373, 25.15258 ], [ -108.3721, 25.15215 ], [ -108.36887, 25.14882 ], [ -108.38405, 25.16024 ], [ -108.38094, 25.18164 ], [ -108.3807, 25.16121 ] ] ], [ [ [ -108.37612, 25.16792 ], [ -108.37917, 25.17151 ], [ -108.38069, 25.18059 ], [ -108.37977, 25.18365 ], [ -108.37612, 25.16792 ] ] ], [ [ [ -110.50953, 25.1113 ], [ -110.51143, 25.11151 ], [ -110.51096, 25.11499 ], [ -110.50953, 25.1113 ] ] ], [ [ [ -110.66885, 25.05204 ], [ -110.60246, 25.03884 ], [ -110.5749, 25.01588 ], [ -110.57021, 24.95384 ], [ -110.53072, 24.87735 ], [ -110.58985, 24.86486 ], [ -110.57363, 24.88801 ], [ -110.64137, 24.91413 ], [ -110.6292, 24.91794 ], [ -110.65532, 24.94836 ], [ -110.67795, 25.01727 ], [ -110.7156, 25.03879 ], [ -110.7067, 25.10487 ], [ -110.66885, 25.05204 ] ] ], [ [ [ -110.86029, 25.12873 ], [ -110.86121, 25.12803 ], [ -110.86194, 25.1294 ], [ -110.86029, 25.12873 ] ] ], [ [ [ -110.69549, 25.19934 ], [ -110.70468, 25.19408 ], [ -110.69747, 25.20556 ], [ -110.69549, 25.19934 ] ] ], [ [ [ -110.91657, 25.20916 ], [ -110.91713, 25.20994 ], [ -110.91601, 25.20988 ], [ -110.91657, 25.20916 ] ] ], [ [ [ -110.92083, 25.24663 ], [ -110.9229, 25.24675 ], [ -110.92254, 25.24762 ], [ -110.92083, 25.24663 ] ] ], [ [ [ -110.71084, 25.26741 ], [ -110.73018, 25.26181 ], [ -110.73155, 25.29196 ], [ -110.69174, 25.30559 ], [ -110.71084, 25.26741 ] ] ], [ [ [ -110.95345, 25.32941 ], [ -110.95289, 25.32859 ], [ -110.9546, 25.32853 ], [ -110.95345, 25.32941 ] ] ], [ [ [ -112.11955, 25.49495 ], [ -112.1199, 25.49465 ], [ -112.12012, 25.49523 ], [ -112.11955, 25.49495 ] ] ], [ [ [ -112.1204, 25.49564 ], [ -112.12073, 25.49618 ], [ -112.12033, 25.49644 ], [ -112.1204, 25.49564 ] ] ], [ [ [ -111.12934, 25.58663 ], [ -111.13008, 25.58431 ], [ -111.13255, 25.58784 ], [ -111.12934, 25.58663 ] ] ], [ [ [ -111.14855, 25.58318 ], [ -111.15302, 25.58287 ], [ -111.1519, 25.58844 ], [ -111.14855, 25.58318 ] ] ], [ [ [ -110.76306, 25.69056 ], [ -110.75873, 25.59366 ], [ -110.78628, 25.60606 ], [ -110.80495, 25.64725 ], [ -110.79891, 25.68475 ], [ -110.77291, 25.71234 ], [ -110.76306, 25.69056 ] ] ], [ [ [ -111.01331, 25.67875 ], [ -111.0298, 25.64978 ], [ -111.05964, 25.70727 ], [ -111.03497, 25.71429 ], [ -111.01331, 25.67875 ] ] ], [ [ [ -111.22568, 25.73034 ], [ -111.22495, 25.73226 ], [ -111.22396, 25.7315 ], [ -111.22568, 25.73034 ] ] ], [ [ [ -111.04447, 25.73942 ], [ -111.04385, 25.74318 ], [ -111.04264, 25.74028 ], [ -111.04447, 25.73942 ] ] ], [ [ [ -111.04987, 25.74178 ], [ -111.04995, 25.74298 ], [ -111.04861, 25.74248 ], [ -111.04987, 25.74178 ] ] ], [ [ [ -111.22613, 25.74345 ], [ -111.2271, 25.74322 ], [ -111.22818, 25.7444 ], [ -111.22613, 25.74345 ] ] ], [ [ [ -111.27396, 25.75711 ], [ -111.27585, 25.75534 ], [ -111.27538, 25.75789 ], [ -111.27396, 25.75711 ] ] ], [ [ [ -111.28142, 25.76719 ], [ -111.28165, 25.76813 ], [ -111.28122, 25.76842 ], [ -111.28142, 25.76719 ] ] ], [ [ [ -111.25509, 25.81198 ], [ -111.24727, 25.7988 ], [ -111.24837, 25.78859 ], [ -111.24333, 25.78913 ], [ -111.24525, 25.76469 ], [ -111.25509, 25.81198 ] ] ], [ [ [ -111.31672, 25.84023 ], [ -111.31746, 25.83997 ], [ -111.31637, 25.84236 ], [ -111.31672, 25.84023 ] ] ], [ [ [ -111.17857, 26.04575 ], [ -111.17785, 26.0439 ], [ -111.18072, 26.04484 ], [ -111.17857, 26.04575 ] ] ], [ [ [ -111.08434, 26.01723 ], [ -111.06507, 25.9702 ], [ -111.10212, 25.99814 ], [ -111.12045, 25.99387 ], [ -111.18033, 25.90455 ], [ -111.20445, 25.80638 ], [ -111.22842, 25.82262 ], [ -111.23314, 25.84829 ], [ -111.21455, 25.8698 ], [ -111.19785, 25.95498 ], [ -111.16802, 25.9874 ], [ -111.17544, 26.04173 ], [ -111.13814, 26.05015 ], [ -111.1285, 26.06743 ], [ -111.10224, 26.05152 ], [ -111.05983, 26.07097 ], [ -111.08434, 26.01723 ] ] ], [ [ [ -111.30367, 26.1048 ], [ -111.30638, 26.10485 ], [ -111.30562, 26.1063 ], [ -111.30367, 26.1048 ] ] ], [ [ [ -111.26326, 26.10614 ], [ -111.29712, 26.09858 ], [ -111.27972, 26.11127 ], [ -111.27913, 26.13535 ], [ -111.26555, 26.1373 ], [ -111.26326, 26.10614 ] ] ], [ [ [ -111.42824, 26.63692 ], [ -111.42509, 26.62451 ], [ -111.43044, 26.62414 ], [ -111.42824, 26.63692 ] ] ], [ [ [ -111.91366, 26.8783 ], [ -111.9154, 26.87759 ], [ -111.91529, 26.87818 ], [ -111.91366, 26.8783 ] ] ], [ [ [ -111.91589, 27.03395 ], [ -111.90884, 27.04285 ], [ -111.90861, 27.04097 ], [ -111.91589, 27.03395 ] ] ], [ [ [ -111.90976, 27.05974 ], [ -111.90924, 27.05993 ], [ -111.90925, 27.05896 ], [ -111.90976, 27.05974 ] ] ], [ [ [ -112.06779, 27.16486 ], [ -112.06771, 27.16408 ], [ -112.06913, 27.16538 ], [ -112.06779, 27.16486 ] ] ], [ [ [ -112.04668, 27.22456 ], [ -112.05938, 27.17965 ], [ -112.08483, 27.18575 ], [ -112.10853, 27.23721 ], [ -112.09281, 27.25835 ], [ -112.04668, 27.22456 ] ] ], [ [ [ -114.28901, 27.10131 ], [ -114.28991, 27.09851 ], [ -114.29531, 27.1015 ], [ -114.28901, 27.10131 ] ] ], [ [ [ -114.29322, 27.11298 ], [ -114.29306, 27.11253 ], [ -114.29358, 27.11223 ], [ -114.29322, 27.11298 ] ] ], [ [ [ -114.37209, 27.14536 ], [ -114.38475, 27.14595 ], [ -114.37556, 27.15073 ], [ -114.37209, 27.14536 ] ] ], [ [ [ -111.86912, 27.45451 ], [ -111.85746, 27.43332 ], [ -111.89535, 27.43065 ], [ -111.9013, 27.4493 ], [ -111.86912, 27.45451 ] ] ], [ [ [ -114.7104, 27.51397 ], [ -114.71022, 27.51384 ], [ -114.71096, 27.51363 ], [ -114.7104, 27.51397 ] ] ], [ [ [ -114.70953, 27.51464 ], [ -114.70998, 27.51463 ], [ -114.70997, 27.51493 ], [ -114.70953, 27.51464 ] ] ], [ [ [ -114.7107, 27.51548 ], [ -114.71102, 27.51539 ], [ -114.71119, 27.51583 ], [ -114.7107, 27.51548 ] ] ], [ [ [ -110.95125, 27.86751 ], [ -110.95089, 27.8683 ], [ -110.95075, 27.86767 ], [ -110.95125, 27.86751 ] ] ], [ [ [ -110.86394, 27.87469 ], [ -110.86597, 27.87465 ], [ -110.8596, 27.88084 ], [ -110.86394, 27.87469 ] ] ], [ [ [ -110.95333, 27.87552 ], [ -110.95238, 27.87681 ], [ -110.95275, 27.87576 ], [ -110.95333, 27.87552 ] ] ], [ [ [ -110.95528, 27.88439 ], [ -110.95605, 27.88434 ], [ -110.95531, 27.88495 ], [ -110.95528, 27.88439 ] ] ], [ [ [ -110.8414, 27.88776 ], [ -110.84705, 27.88714 ], [ -110.84818, 27.88852 ], [ -110.84861, 27.89124 ], [ -110.83307, 27.90088 ], [ -110.8414, 27.88776 ] ] ], [ [ [ -110.90033, 27.89895 ], [ -110.90107, 27.89878 ], [ -110.90129, 27.89943 ], [ -110.90033, 27.89895 ] ] ], [ [ [ -110.89914, 27.90054 ], [ -110.89908, 27.90106 ], [ -110.89838, 27.90091 ], [ -110.89914, 27.90054 ] ] ], [ [ [ -110.88189, 27.90984 ], [ -110.87935, 27.91097 ], [ -110.87911, 27.90891 ], [ -110.88189, 27.90984 ] ] ], [ [ [ -110.87035, 27.90893 ], [ -110.87498, 27.90662 ], [ -110.87477, 27.91143 ], [ -110.87035, 27.90893 ] ] ], [ [ [ -110.97027, 27.90858 ], [ -110.97092, 27.90924 ], [ -110.9691, 27.90968 ], [ -110.97027, 27.90858 ] ] ], [ [ [ -110.99111, 27.9255 ], [ -110.99239, 27.92574 ], [ -110.99186, 27.92596 ], [ -110.99111, 27.9255 ] ] ], [ [ [ -111.05965, 27.92968 ], [ -111.05983, 27.93089 ], [ -111.05915, 27.9308 ], [ -111.05965, 27.92968 ] ] ], [ [ [ -110.98999, 27.93492 ], [ -110.99068, 27.93296 ], [ -110.99301, 27.93457 ], [ -110.98999, 27.93492 ] ] ], [ [ [ -111.05178, 27.9356 ], [ -111.0516, 27.93646 ], [ -111.05076, 27.93583 ], [ -111.05178, 27.9356 ] ] ], [ [ [ -111.05211, 27.93976 ], [ -111.05226, 27.9416 ], [ -111.05089, 27.9402 ], [ -111.05211, 27.93976 ] ] ], [ [ [ -112.73713, 27.84219 ], [ -112.73647, 27.8412 ], [ -112.74141, 27.84239 ], [ -112.73713, 27.84219 ] ] ], [ [ [ -111.02913, 27.94853 ], [ -111.03209, 27.94705 ], [ -111.02926, 27.95298 ], [ -111.02913, 27.94853 ] ] ], [ [ [ -111.1248, 27.95275 ], [ -111.11916, 27.95959 ], [ -111.11913, 27.95825 ], [ -111.1248, 27.95275 ] ] ], [ [ [ -111.36907, 27.96159 ], [ -111.36713, 27.95269 ], [ -111.39008, 27.9851 ], [ -111.36907, 27.96159 ] ] ], [ [ [ -112.76048, 27.90252 ], [ -112.7597, 27.90343 ], [ -112.76004, 27.90223 ], [ -112.76048, 27.90252 ] ] ], [ [ [ -115.22229, 27.89361 ], [ -115.2228, 27.89267 ], [ -115.2243, 27.89357 ], [ -115.22229, 27.89361 ] ] ], [ [ [ -115.16144, 27.87028 ], [ -115.1661, 27.85306 ], [ -115.22028, 27.89061 ], [ -115.16144, 27.87028 ] ] ], [ [ [ -112.29974, 28.37293 ], [ -112.32011, 28.37619 ], [ -112.31497, 28.38703 ], [ -112.29974, 28.37293 ] ] ], [ [ [ -115.53679, 28.30473 ], [ -115.54366, 28.29138 ], [ -115.54985, 28.30447 ], [ -115.53679, 28.30473 ] ] ], [ [ [ -115.56766, 28.31393 ], [ -115.56093, 28.30809 ], [ -115.57057, 28.30828 ], [ -115.56766, 28.31393 ] ] ], [ [ [ -115.57562, 28.30896 ], [ -115.57895, 28.29752 ], [ -115.60665, 28.30071 ], [ -115.59108, 28.31579 ], [ -115.57562, 28.30896 ] ] ], [ [ [ -115.19451, 28.36101 ], [ -115.19594, 28.33377 ], [ -115.17422, 28.30617 ], [ -115.16395, 28.26076 ], [ -115.17377, 28.21443 ], [ -115.15667, 28.16626 ], [ -115.15933, 28.13789 ], [ -115.18642, 28.10538 ], [ -115.1856, 28.03142 ], [ -115.22992, 28.02958 ], [ -115.25531, 28.03774 ], [ -115.2632, 28.06966 ], [ -115.29056, 28.09349 ], [ -115.34497, 28.07451 ], [ -115.35891, 28.08072 ], [ -115.35267, 28.11698 ], [ -115.31451, 28.13917 ], [ -115.23882, 28.22799 ], [ -115.26407, 28.29433 ], [ -115.24574, 28.35263 ], [ -115.21788, 28.37769 ], [ -115.19451, 28.36101 ] ] ], [ [ [ -112.83866, 28.66116 ], [ -112.75256, 28.59153 ], [ -112.78261, 28.58036 ], [ -112.79891, 28.61058 ], [ -112.86785, 28.64397 ], [ -112.89233, 28.67826 ], [ -112.83866, 28.66116 ] ] ], [ [ [ -112.28304, 28.71452 ], [ -112.28619, 28.70934 ], [ -112.29824, 28.73521 ], [ -112.28304, 28.71452 ] ] ], [ [ [ -112.90472, 28.69829 ], [ -112.90416, 28.69932 ], [ -112.90366, 28.69853 ], [ -112.90472, 28.69829 ] ] ], [ [ [ -112.5421, 28.71147 ], [ -112.55388, 28.67197 ], [ -112.60568, 28.66767 ], [ -112.61215, 28.72656 ], [ -112.5534, 28.73071 ], [ -112.5421, 28.71147 ] ] ], [ [ [ -112.92078, 28.69969 ], [ -112.89761, 28.69723 ], [ -112.89507, 28.67991 ], [ -112.93137, 28.69643 ], [ -112.93138, 28.70935 ], [ -112.92078, 28.69969 ] ] ], [ [ [ -112.96194, 28.72331 ], [ -112.9645, 28.72381 ], [ -112.96418, 28.72464 ], [ -112.96194, 28.72331 ] ] ], [ [ [ -112.96587, 28.73338 ], [ -112.96709, 28.73381 ], [ -112.9667, 28.73436 ], [ -112.96587, 28.73338 ] ] ], [ [ [ -112.95083, 28.72742 ], [ -112.94629, 28.71716 ], [ -112.96567, 28.73113 ], [ -112.95083, 28.72742 ] ] ], [ [ [ -111.97355, 28.80908 ], [ -111.96524, 28.81667 ], [ -111.96368, 28.81596 ], [ -111.97355, 28.80908 ] ] ], [ [ [ -114.27766, 28.66869 ], [ -114.27938, 28.66935 ], [ -114.27868, 28.67041 ], [ -114.27766, 28.66869 ] ] ], [ [ [ -114.27836, 28.6938 ], [ -114.27862, 28.69297 ], [ -114.28086, 28.6933 ], [ -114.27836, 28.6938 ] ] ], [ [ [ -112.97574, 28.82549 ], [ -112.97525, 28.82288 ], [ -112.9816, 28.82101 ], [ -112.97574, 28.82549 ] ] ], [ [ [ -112.99891, 28.83634 ], [ -112.99959, 28.83646 ], [ -112.99939, 28.83688 ], [ -112.99891, 28.83634 ] ] ], [ [ [ -113.35828, 28.82741 ], [ -113.35735, 28.82794 ], [ -113.35752, 28.82651 ], [ -113.35828, 28.82741 ] ] ], [ [ [ -114.35113, 28.76715 ], [ -114.35232, 28.76716 ], [ -114.35236, 28.76776 ], [ -114.35113, 28.76715 ] ] ], [ [ [ -113.02775, 28.88758 ], [ -113.02671, 28.88599 ], [ -113.02998, 28.88584 ], [ -113.02775, 28.88758 ] ] ], [ [ [ -113.03275, 28.8957 ], [ -113.04446, 28.88365 ], [ -113.04803, 28.8944 ], [ -113.03275, 28.8957 ] ] ], [ [ [ -113.35799, 28.88249 ], [ -113.35994, 28.8827 ], [ -113.35911, 28.88343 ], [ -113.35799, 28.88249 ] ] ], [ [ [ -113.04283, 28.91156 ], [ -113.04326, 28.91069 ], [ -113.0443, 28.9112 ], [ -113.04283, 28.91156 ] ] ], [ [ [ -113.38528, 28.92471 ], [ -113.38478, 28.92649 ], [ -113.38365, 28.92409 ], [ -113.38528, 28.92471 ] ] ], [ [ [ -113.48297, 28.95589 ], [ -113.48309, 28.95609 ], [ -113.48229, 28.95644 ], [ -113.48297, 28.95589 ] ] ], [ [ [ -113.47644, 28.95537 ], [ -113.47741, 28.9559 ], [ -113.47462, 28.95719 ], [ -113.47644, 28.95537 ] ] ], [ [ [ -113.48138, 28.9673 ], [ -113.48511, 28.9789 ], [ -113.47708, 28.9749 ], [ -113.48138, 28.9673 ] ] ], [ [ [ -113.51835, 28.99772 ], [ -113.51806, 28.99513 ], [ -113.52071, 28.99704 ], [ -113.51835, 28.99772 ] ] ], [ [ [ -113.51966, 28.99891 ], [ -113.52013, 28.99788 ], [ -113.52124, 28.9984 ], [ -113.51966, 28.99891 ] ] ], [ [ [ -113.50198, 28.99398 ], [ -113.51135, 28.98873 ], [ -113.51696, 28.99384 ], [ -113.50198, 28.99398 ] ] ], [ [ [ -113.52111, 29.00528 ], [ -113.52431, 29.0016 ], [ -113.52393, 29.00546 ], [ -113.52111, 29.00528 ] ] ], [ [ [ -113.51407, 29.00973 ], [ -113.51593, 29.00986 ], [ -113.51517, 29.01161 ], [ -113.51407, 29.00973 ] ] ], [ [ [ -113.52409, 29.01195 ], [ -113.525, 29.01072 ], [ -113.52505, 29.01329 ], [ -113.52409, 29.01195 ] ] ], [ [ [ -113.50653, 29.01387 ], [ -113.50506, 29.01489 ], [ -113.50506, 29.0142 ], [ -113.50653, 29.01387 ] ] ], [ [ [ -113.51079, 29.01407 ], [ -113.51109, 29.01336 ], [ -113.51635, 29.01341 ], [ -113.51079, 29.01407 ] ] ], [ [ [ -113.46424, 29.02159 ], [ -113.46031, 29.0132 ], [ -113.46628, 29.01394 ], [ -113.46424, 29.02159 ] ] ], [ [ [ -113.49828, 29.02744 ], [ -113.49831, 29.02713 ], [ -113.499, 29.02739 ], [ -113.49828, 29.02744 ] ] ], [ [ [ -113.08485, 29.06315 ], [ -113.08767, 29.06204 ], [ -113.09258, 29.06291 ], [ -113.09508, 29.06195 ], [ -113.09731, 29.06156 ], [ -113.0975, 29.06183 ], [ -113.08345, 29.0689 ], [ -113.08485, 29.06315 ] ] ], [ [ [ -114.61619, 28.96531 ], [ -114.61621, 28.96573 ], [ -114.6158, 28.96571 ], [ -114.61619, 28.96531 ] ] ], [ [ [ -113.51232, 29.06182 ], [ -113.51259, 29.06109 ], [ -113.513, 29.06142 ], [ -113.51232, 29.06182 ] ] ], [ [ [ -113.51587, 29.06722 ], [ -113.51488, 29.06483 ], [ -113.52185, 29.06964 ], [ -113.51587, 29.06722 ] ] ], [ [ [ -113.50234, 29.09042 ], [ -113.50272, 29.04983 ], [ -113.48918, 29.03769 ], [ -113.51379, 29.0521 ], [ -113.50972, 29.062 ], [ -113.52463, 29.09552 ], [ -113.50234, 29.09042 ] ] ], [ [ [ -113.52728, 29.0981 ], [ -113.53085, 29.09617 ], [ -113.53004, 29.09846 ], [ -113.52728, 29.0981 ] ] ], [ [ [ -112.26248, 29.19378 ], [ -112.27438, 29.1368 ], [ -112.19508, 29.0207 ], [ -112.21173, 28.9931 ], [ -112.21538, 28.95688 ], [ -112.21496, 28.95925 ], [ -112.20874, 28.96639 ], [ -112.19094, 28.97667 ], [ -112.19325, 28.97852 ], [ -112.18936, 28.977 ], [ -112.21486, 28.95687 ], [ -112.23955, 28.87175 ], [ -112.27521, 28.81664 ], [ -112.27357, 28.7839 ], [ -112.25366, 28.76781 ], [ -112.31019, 28.74684 ], [ -112.32857, 28.76359 ], [ -112.35893, 28.75971 ], [ -112.40683, 28.79948 ], [ -112.46149, 28.80264 ], [ -112.47236, 28.82172 ], [ -112.58437, 28.87663 ], [ -112.51718, 28.91525 ], [ -112.4895, 28.94905 ], [ -112.50584, 29.06308 ], [ -112.46157, 29.18832 ], [ -112.43554, 29.20006 ], [ -112.40913, 29.18597 ], [ -112.35998, 29.22023 ], [ -112.29184, 29.22628 ], [ -112.26248, 29.19378 ] ] ], [ [ [ -113.60693, 29.16676 ], [ -113.60806, 29.16604 ], [ -113.60821, 29.16813 ], [ -113.60693, 29.16676 ] ] ], [ [ [ -113.39336, 29.45925 ], [ -113.35204, 29.38735 ], [ -113.37614, 29.34951 ], [ -113.36679, 29.30785 ], [ -113.29444, 29.28126 ], [ -113.18354, 29.28955 ], [ -113.16759, 29.27889 ], [ -113.17456, 29.12778 ], [ -113.14837, 29.06619 ], [ -113.1002, 29.05623 ], [ -113.11615, 28.98699 ], [ -113.24395, 29.06713 ], [ -113.30069, 29.1451 ], [ -113.40441, 29.20947 ], [ -113.44282, 29.27568 ], [ -113.49692, 29.28379 ], [ -113.50729, 29.3232 ], [ -113.58822, 29.40892 ], [ -113.59226, 29.45103 ], [ -113.56362, 29.5052 ], [ -113.57212, 29.53836 ], [ -113.5455, 29.53399 ], [ -113.51391, 29.55148 ], [ -113.39336, 29.45925 ] ] ], [ [ [ -113.55755, 29.54876 ], [ -113.55903, 29.5461 ], [ -113.55871, 29.55426 ], [ -113.55755, 29.54876 ] ] ], [ [ [ -113.53436, 29.56201 ], [ -113.5453, 29.56541 ], [ -113.53978, 29.56641 ], [ -113.53436, 29.56201 ] ] ], [ [ [ -113.55966, 29.56087 ], [ -113.56051, 29.55531 ], [ -113.5757, 29.54599 ], [ -113.57934, 29.56099 ], [ -113.55966, 29.56087 ] ] ], [ [ [ -118.28983, 29.1401 ], [ -118.28271, 29.10893 ], [ -118.22806, 29.06199 ], [ -118.22148, 28.96263 ], [ -118.24823, 28.891 ], [ -118.29496, 28.88144 ], [ -118.28228, 28.90115 ], [ -118.29841, 28.93575 ], [ -118.29097, 28.96824 ], [ -118.31307, 28.97958 ], [ -118.31662, 29.03758 ], [ -118.36465, 29.07755 ], [ -118.35041, 29.11463 ], [ -118.36511, 29.14621 ], [ -118.33396, 29.16945 ], [ -118.26263, 29.18266 ], [ -118.28983, 29.1401 ] ] ], [ [ [ -115.50029, 29.6145 ], [ -115.49966, 29.61502 ], [ -115.49963, 29.61493 ], [ -115.50029, 29.6145 ] ] ], [ [ [ -115.78819, 29.79338 ], [ -115.7951, 29.78656 ], [ -115.79486, 29.79261 ], [ -115.78819, 29.79338 ] ] ], [ [ [ -114.39169, 29.96185 ], [ -114.41532, 29.94866 ], [ -114.42372, 29.96696 ], [ -114.41746, 29.98801 ], [ -114.39169, 29.96185 ] ] ], [ [ [ -114.387, 29.99204 ], [ -114.38957, 29.98868 ], [ -114.39088, 29.99344 ], [ -114.387, 29.99204 ] ] ], [ [ [ -114.47329, 30.01421 ], [ -114.47498, 30.01296 ], [ -114.47996, 30.02024 ], [ -114.47329, 30.01421 ] ] ], [ [ [ -114.49126, 30.05334 ], [ -114.48924, 30.05472 ], [ -114.48652, 30.05125 ], [ -114.49126, 30.05334 ] ] ], [ [ [ -114.54013, 30.09225 ], [ -114.53518, 30.08326 ], [ -114.55389, 30.08976 ], [ -114.54013, 30.09225 ] ] ], [ [ [ -114.62725, 30.13039 ], [ -114.62651, 30.13143 ], [ -114.62554, 30.13118 ], [ -114.62725, 30.13039 ] ] ], [ [ [ -116.10815, 30.49585 ], [ -116.10065, 30.48419 ], [ -116.12229, 30.48427 ], [ -116.10815, 30.49585 ] ] ], [ [ [ -114.77247, 31.5329 ], [ -114.7717, 31.5587 ], [ -114.75463, 31.5519 ], [ -114.74477, 31.53209 ], [ -114.77247, 31.5329 ] ] ], [ [ [ -114.62488, 31.75756 ], [ -114.59572, 31.74725 ], [ -114.61934, 31.72846 ], [ -114.67972, 31.75699 ], [ -114.62488, 31.75756 ] ] ], [ [ [ -114.73443, 31.76976 ], [ -114.66867, 31.71878 ], [ -114.65064, 31.67987 ], [ -114.66817, 31.67629 ], [ -114.71164, 31.71032 ], [ -114.6897, 31.68172 ], [ -114.7175, 31.68118 ], [ -114.7911, 31.73 ], [ -114.79994, 31.81265 ], [ -114.76969, 31.81683 ], [ -114.73443, 31.76976 ] ] ], [ [ [ -116.78879, 31.80659 ], [ -116.78694, 31.79097 ], [ -116.79705, 31.80314 ], [ -116.78879, 31.80659 ] ] ], [ [ [ -116.80121, 31.81198 ], [ -116.80141, 31.8059 ], [ -116.80928, 31.8099 ], [ -116.80121, 31.81198 ] ] ], [ [ [ -117.2422, 32.41144 ], [ -117.23997, 32.39109 ], [ -117.25077, 32.41968 ], [ -117.2422, 32.41144 ] ] ], [ [ [ -117.25939, 32.4198 ], [ -117.25728, 32.4185 ], [ -117.25961, 32.41471 ], [ -117.25939, 32.4198 ] ] ], [ [ [ -117.29674, 32.44368 ], [ -117.29408, 32.43372 ], [ -117.30004, 32.44034 ], [ -117.29674, 32.44368 ] ] ], [ [ [ -114.71972, 32.71865 ], [ -114.76464, 32.64317 ], [ -114.80792, 32.62035 ], [ -114.81225, 32.56223 ], [ -114.79181, 32.55785 ], [ -114.81357, 32.49391 ], [ -111.075, 31.33257 ], [ -108.20847, 31.33336 ], [ -108.20837, 31.78375 ], [ -106.52852, 31.78382 ], [ -106.48755, 31.74772 ], [ -106.45093, 31.76437 ], [ -106.38127, 31.73234 ], [ -106.35021, 31.6975 ], [ -106.28041, 31.56229 ], [ -106.24719, 31.54281 ], [ -106.20813, 31.46758 ], [ -106.0802, 31.3986 ], [ -106.00478, 31.39266 ], [ -105.95351, 31.36409 ], [ -105.93783, 31.31824 ], [ -105.87033, 31.28972 ], [ -105.78327, 31.19815 ], [ -105.77258, 31.16621 ], [ -105.7419, 31.16471 ], [ -105.60414, 31.08327 ], [ -105.55759, 30.99005 ], [ -105.50285, 30.96801 ], [ -105.49152, 30.9423 ], [ -105.40009, 30.88938 ], [ -105.40119, 30.85319 ], [ -105.3391, 30.84026 ], [ -105.31651, 30.81088 ], [ -105.29116, 30.82583 ], [ -105.25636, 30.79442 ], [ -105.21555, 30.8059 ], [ -105.21682, 30.78354 ], [ -105.19556, 30.79225 ], [ -105.17555, 30.76758 ], [ -105.16591, 30.77954 ], [ -105.16169, 30.75242 ], [ -105.11859, 30.7496 ], [ -105.06194, 30.68582 ], [ -105.0069, 30.68578 ], [ -104.97168, 30.61 ], [ -104.92236, 30.60353 ], [ -104.86649, 30.49403 ], [ -104.86824, 30.44203 ], [ -104.84784, 30.42068 ], [ -104.85916, 30.3904 ], [ -104.81657, 30.37512 ], [ -104.81128, 30.33265 ], [ -104.76533, 30.30612 ], [ -104.76319, 30.27458 ], [ -104.70619, 30.23413 ], [ -104.68626, 30.17292 ], [ -104.69645, 30.13468 ], [ -104.68509, 30.0854 ], [ -104.70659, 30.05058 ], [ -104.68984, 30.01496 ], [ -104.69349, 29.97583 ], [ -104.68103, 29.97759 ], [ -104.68501, 29.9566 ], [ -104.67348, 29.95601 ], [ -104.68295, 29.92918 ], [ -104.56535, 29.77014 ], [ -104.56971, 29.75247 ], [ -104.54971, 29.7414 ], [ -104.56044, 29.73608 ], [ -104.53084, 29.6905 ], [ -104.54416, 29.6807 ], [ -104.50833, 29.63265 ], [ -104.47635, 29.62833 ], [ -104.39898, 29.573 ], [ -104.38492, 29.54299 ], [ -104.35615, 29.5412 ], [ -104.33538, 29.5198 ], [ -104.31341, 29.53176 ], [ -104.23682, 29.49715 ], [ -104.23075, 29.47912 ], [ -104.21288, 29.48509 ], [ -104.21751, 29.45612 ], [ -104.16793, 29.39552 ], [ -104.10781, 29.37358 ], [ -104.03789, 29.31991 ], [ -103.78332, 29.26552 ], [ -103.7773, 29.22193 ], [ -103.76038, 29.23346 ], [ -103.74265, 29.2223 ], [ -103.71828, 29.18115 ], [ -103.65923, 29.17059 ], [ -103.65015, 29.15669 ], [ -103.55407, 29.15852 ], [ -103.47071, 29.08512 ], [ -103.47169, 29.06679 ], [ -103.45001, 29.07267 ], [ -103.43282, 29.04363 ], [ -103.38633, 29.02209 ], [ -103.35802, 29.01899 ], [ -103.34591, 29.04671 ], [ -103.33058, 29.04315 ], [ -103.33998, 29.02177 ], [ -103.30789, 29.02497 ], [ -103.31527, 29.00899 ], [ -103.2864, 29.00055 ], [ -103.28514, 28.97646 ], [ -103.26734, 28.996 ], [ -103.25052, 28.98026 ], [ -103.228, 28.99171 ], [ -103.16387, 28.97205 ], [ -103.1161, 28.98418 ], [ -103.10071, 29.06033 ], [ -103.08587, 29.05381 ], [ -103.07589, 29.09147 ], [ -103.0338, 29.1012 ], [ -102.99527, 29.17964 ], [ -102.95082, 29.17353 ], [ -102.94318, 29.1916 ], [ -102.91789, 29.19084 ], [ -102.91231, 29.21943 ], [ -102.89437, 29.20857 ], [ -102.86779, 29.22312 ], [ -102.87151, 29.2416 ], [ -102.90631, 29.25932 ], [ -102.88398, 29.34798 ], [ -102.83922, 29.3589 ], [ -102.84494, 29.37431 ], [ -102.81239, 29.40027 ], [ -102.83322, 29.4102 ], [ -102.82538, 29.45794 ], [ -102.80067, 29.48614 ], [ -102.80832, 29.52264 ], [ -102.77105, 29.5484 ], [ -102.76842, 29.59495 ], [ -102.7402, 29.5979 ], [ -102.74102, 29.63586 ], [ -102.69331, 29.67672 ], [ -102.69862, 29.69735 ], [ -102.67445, 29.74438 ], [ -102.63028, 29.73404 ], [ -102.57404, 29.75502 ], [ -102.56957, 29.77174 ], [ -102.54805, 29.7446 ], [ -102.51367, 29.76574 ], [ -102.51778, 29.78394 ], [ -102.48725, 29.78693 ], [ -102.38758, 29.76151 ], [ -102.36491, 29.84555 ], [ -102.31635, 29.88001 ], [ -102.2651, 29.8677 ], [ -102.26034, 29.85312 ], [ -102.24644, 29.86423 ], [ -102.22323, 29.84054 ], [ -102.19626, 29.83626 ], [ -102.18703, 29.84877 ], [ -102.17955, 29.82606 ], [ -102.14358, 29.80358 ], [ -102.07222, 29.78662 ], [ -102.04912, 29.78546 ], [ -102.03545, 29.80425 ], [ -101.98786, 29.79699 ], [ -101.97549, 29.81568 ], [ -101.95762, 29.79587 ], [ -101.93543, 29.79956 ], [ -101.92895, 29.78271 ], [ -101.85321, 29.80776 ], [ -101.8236, 29.78727 ], [ -101.81765, 29.81167 ], [ -101.80437, 29.78004 ], [ -101.7753, 29.78917 ], [ -101.71008, 29.76182 ], [ -101.66146, 29.77126 ], [ -101.64386, 29.75407 ], [ -101.62719, 29.77087 ], [ -101.57486, 29.76928 ], [ -101.56948, 29.79681 ], [ -101.54465, 29.81219 ], [ -101.53665, 29.75812 ], [ -101.4643, 29.78961 ], [ -101.44768, 29.75049 ], [ -101.40132, 29.77071 ], [ -101.4157, 29.74642 ], [ -101.37091, 29.69881 ], [ -101.36071, 29.64869 ], [ -101.34586, 29.66276 ], [ -101.30175, 29.65096 ], [ -101.31268, 29.6059 ], [ -101.30223, 29.57603 ], [ -101.27891, 29.58767 ], [ -101.27027, 29.62822 ], [ -101.24915, 29.62286 ], [ -101.24301, 29.56617 ], [ -101.2586, 29.52244 ], [ -101.18555, 29.518 ], [ -101.14763, 29.47446 ], [ -101.06181, 29.46425 ], [ -101.01006, 29.36853 ], [ -100.88644, 29.30778 ], [ -100.87687, 29.28014 ], [ -100.81378, 29.26371 ], [ -100.76701, 29.19571 ], [ -100.77278, 29.16839 ], [ -100.67361, 29.09998 ], [ -100.64567, 28.9879 ], [ -100.65146, 28.94286 ], [ -100.62965, 28.92255 ], [ -100.64091, 28.91462 ], [ -100.60095, 28.90161 ], [ -100.57442, 28.82855 ], [ -100.54763, 28.82624 ], [ -100.53513, 28.80471 ], [ -100.53344, 28.75881 ], [ -100.50737, 28.74042 ], [ -100.50018, 28.66167 ], [ -100.44618, 28.64169 ], [ -100.44716, 28.60923 ], [ -100.39869, 28.58538 ], [ -100.411, 28.54975 ], [ -100.38854, 28.5154 ], [ -100.33387, 28.49928 ], [ -100.3684, 28.47667 ], [ -100.33747, 28.44302 ], [ -100.34293, 28.38716 ], [ -100.28676, 28.31324 ], [ -100.29079, 28.27503 ], [ -100.25451, 28.23787 ], [ -100.22064, 28.23276 ], [ -100.20916, 28.19123 ], [ -100.08461, 28.14503 ], [ -100.053, 28.08505 ], [ -100.01775, 28.06513 ], [ -99.99049, 27.99362 ], [ -99.93122, 27.98058 ], [ -99.93727, 27.94095 ], [ -99.89353, 27.89948 ], [ -99.90408, 27.87371 ], [ -99.87696, 27.84147 ], [ -99.8755, 27.7968 ], [ -99.85076, 27.7939 ], [ -99.83622, 27.76318 ], [ -99.81337, 27.77425 ], [ -99.79986, 27.73963 ], [ -99.76841, 27.7301 ], [ -99.71043, 27.65766 ], [ -99.6905, 27.66912 ], [ -99.66692, 27.65923 ], [ -99.65547, 27.62926 ], [ -99.5959, 27.63976 ], [ -99.57711, 27.61831 ], [ -99.58423, 27.60346 ], [ -99.55483, 27.61441 ], [ -99.51341, 27.56926 ], [ -99.52819, 27.49815 ], [ -99.49343, 27.49763 ], [ -99.47876, 27.47951 ], [ -99.49534, 27.44658 ], [ -99.48762, 27.41105 ], [ -99.5045, 27.33878 ], [ -99.53813, 27.31645 ], [ -99.4946, 27.30376 ], [ -99.4909, 27.26273 ], [ -99.46195, 27.26839 ], [ -99.44183, 27.25081 ], [ -99.42622, 27.17613 ], [ -99.44254, 27.10683 ], [ -99.42866, 27.09159 ], [ -99.45271, 27.06407 ], [ -99.44569, 27.02186 ], [ -99.41541, 27.01738 ], [ -99.37647, 26.97685 ], [ -99.39376, 26.96023 ], [ -99.38502, 26.9396 ], [ -99.32422, 26.91595 ], [ -99.31714, 26.86546 ], [ -99.26802, 26.84263 ], [ -99.23962, 26.74526 ], [ -99.2086, 26.72445 ], [ -99.17152, 26.54315 ], [ -99.10431, 26.49909 ], [ -99.09165, 26.47532 ], [ -99.11359, 26.43252 ], [ -99.08511, 26.39847 ], [ -99.03729, 26.41357 ], [ -99.01077, 26.39226 ], [ -98.97439, 26.40131 ], [ -98.94324, 26.36944 ], [ -98.92672, 26.39457 ], [ -98.89613, 26.35308 ], [ -98.8046, 26.36763 ], [ -98.78852, 26.33052 ], [ -98.75072, 26.33118 ], [ -98.73607, 26.30832 ], [ -98.75498, 26.30759 ], [ -98.75092, 26.29601 ], [ -98.70246, 26.28709 ], [ -98.71966, 26.27255 ], [ -98.68112, 26.26294 ], [ -98.67056, 26.237 ], [ -98.63458, 26.24233 ], [ -98.62441, 26.25974 ], [ -98.61626, 26.24649 ], [ -98.58573, 26.25767 ], [ -98.56266, 26.22441 ], [ -98.54574, 26.23653 ], [ -98.55424, 26.24779 ], [ -98.4814, 26.20062 ], [ -98.48182, 26.2193 ], [ -98.4441, 26.22418 ], [ -98.44393, 26.20054 ], [ -98.38732, 26.15843 ], [ -98.36637, 26.15766 ], [ -98.35983, 26.17252 ], [ -98.35209, 26.15106 ], [ -98.33569, 26.16582 ], [ -98.33561, 26.13832 ], [ -98.30534, 26.10289 ], [ -98.29687, 26.1203 ], [ -98.2663, 26.12094 ], [ -98.28837, 26.10469 ], [ -98.19363, 26.05309 ], [ -98.17659, 26.07532 ], [ -98.14686, 26.04914 ], [ -98.13187, 26.07431 ], [ -98.09358, 26.05865 ], [ -98.08133, 26.0713 ], [ -98.07295, 26.03642 ], [ -98.03871, 26.04137 ], [ -98.02793, 26.06698 ], [ -98.01189, 26.05608 ], [ -97.9802, 26.06722 ], [ -97.96587, 26.05167 ], [ -97.93355, 26.05299 ], [ -97.93364, 26.06556 ], [ -97.86898, 26.05678 ], [ -97.8614, 26.07003 ], [ -97.861, 26.05296 ], [ -97.83426, 26.0456 ], [ -97.81929, 26.05658 ], [ -97.81241, 26.04407 ], [ -97.80109, 26.06021 ], [ -97.7779, 26.02921 ], [ -97.76803, 26.04726 ], [ -97.76154, 26.02556 ], [ -97.72045, 26.02302 ], [ -97.70712, 26.03774 ], [ -97.69156, 26.01882 ], [ -97.69327, 26.03236 ], [ -97.66261, 26.03808 ], [ -97.66814, 26.01943 ], [ -97.63992, 26.02395 ], [ -97.64929, 26.01044 ], [ -97.61836, 26.00232 ], [ -97.63445, 25.99004 ], [ -97.60209, 25.95736 ], [ -97.58246, 25.96259 ], [ -97.57812, 25.94209 ], [ -97.56791, 25.95251 ], [ -97.58327, 25.93322 ], [ -97.53731, 25.93081 ], [ -97.52127, 25.88632 ], [ -97.49819, 25.89916 ], [ -97.49715, 25.87987 ], [ -97.45552, 25.88412 ], [ -97.44461, 25.86781 ], [ -97.45406, 25.85428 ], [ -97.42445, 25.84044 ], [ -97.40945, 25.86227 ], [ -97.40615, 25.8379 ], [ -97.37263, 25.84013 ], [ -97.36421, 25.85087 ], [ -97.37619, 25.85559 ], [ -97.35666, 25.86735 ], [ -97.37417, 25.88028 ], [ -97.3564, 25.88776 ], [ -97.37503, 25.90829 ], [ -97.34791, 25.93131 ], [ -97.3261, 25.91754 ], [ -97.3032, 25.93698 ], [ -97.27682, 25.9352 ], [ -97.28397, 25.95933 ], [ -97.24749, 25.94803 ], [ -97.20863, 25.96387 ], [ -97.14637, 25.95489 ], [ -97.15827, 25.78414 ], [ -97.20096, 25.62988 ], [ -97.38296, 25.32204 ], [ -97.49245, 25.10269 ], [ -97.5798, 24.86482 ], [ -97.67656, 24.50526 ], [ -97.73638, 23.97341 ], [ -97.7315, 23.7717 ], [ -97.76979, 23.35524 ], [ -97.76595, 22.89479 ], [ -97.78846, 22.79288 ], [ -97.85116, 22.63573 ], [ -97.85488, 22.45368 ], [ -97.81633, 22.31699 ], [ -97.77435, 22.26392 ], [ -97.79268, 22.2575 ], [ -97.7873, 22.17513 ], [ -97.70729, 21.97135 ], [ -97.56433, 21.77079 ], [ -97.3279, 21.56717 ], [ -97.35059, 21.45661 ], [ -97.41444, 21.32539 ], [ -97.42024, 21.2309 ], [ -97.32628, 21.00566 ], [ -97.20517, 20.77613 ], [ -97.17747, 20.66209 ], [ -96.71019, 20.16522 ], [ -96.57433, 20.00521 ], [ -96.55171, 19.95451 ], [ -96.4495, 19.8492 ], [ -96.40107, 19.72533 ], [ -96.37403, 19.5609 ], [ -96.31284, 19.47918 ], [ -96.32174, 19.41434 ], [ -96.30152, 19.3323 ], [ -96.25361, 19.28345 ], [ -96.18177, 19.25044 ], [ -96.16931, 19.22192 ], [ -96.1235, 19.21387 ], [ -96.12033, 19.2036 ], [ -96.13538, 19.21412 ], [ -96.14028, 19.21006 ], [ -96.09271, 19.15153 ], [ -96.10504, 19.12365 ], [ -96.0826, 19.07767 ], [ -96.03936, 19.05761 ], [ -95.97279, 19.05665 ], [ -95.94159, 18.90707 ], [ -95.90082, 18.85944 ], [ -95.60708, 18.72574 ], [ -95.18898, 18.70974 ], [ -95.13074, 18.6743 ], [ -95.12164, 18.65249 ], [ -95.07948, 18.64169 ], [ -95.03381, 18.57234 ], [ -94.98795, 18.55445 ], [ -94.81657, 18.53858 ], [ -94.73653, 18.39389 ], [ -94.6231, 18.28713 ], [ -94.60257, 18.19873 ], [ -94.55654, 18.16778 ], [ -94.48746, 18.15105 ], [ -94.12943, 18.21292 ], [ -93.58552, 18.3921 ], [ -93.43526, 18.42791 ], [ -93.21405, 18.44688 ], [ -93.21051, 18.43037 ], [ -93.19286, 18.44358 ], [ -93.19437, 18.43327 ], [ -93.18677, 18.43113 ], [ -93.18365, 18.43767 ], [ -93.19033, 18.43788 ], [ -93.18932, 18.44731 ], [ -93.19836, 18.45316 ], [ -93.18977, 18.4486 ], [ -93.18488, 18.44108 ], [ -93.03091, 18.43117 ], [ -92.90358, 18.44135 ], [ -92.77746, 18.50042 ], [ -92.68731, 18.61939 ], [ -92.62598, 18.61408 ], [ -92.36805, 18.66921 ], [ -91.97902, 18.69736 ], [ -91.95233, 18.69406 ], [ -91.91224, 18.63896 ], [ -91.85694, 18.61249 ], [ -91.82583, 18.63022 ], [ -91.85404, 18.64728 ], [ -91.84134, 18.66426 ], [ -91.73813, 18.68097 ], [ -91.53436, 18.77977 ], [ -91.5224, 18.76562 ], [ -91.38879, 18.89494 ], [ -91.11876, 19.03129 ], [ -90.9079, 19.17698 ], [ -90.77235, 19.29308 ], [ -90.72104, 19.35798 ], [ -90.72515, 19.40118 ], [ -90.70295, 19.48598 ], [ -90.71192, 19.56229 ], [ -90.68562, 19.62835 ], [ -90.70627, 19.65439 ], [ -90.74368, 19.65509 ], [ -90.70604, 19.6546 ], [ -90.71236, 19.67171 ], [ -90.67075, 19.71746 ], [ -90.66141, 19.75852 ], [ -90.52205, 19.85835 ], [ -90.52914, 19.86585 ], [ -90.50876, 19.86601 ], [ -90.4473, 19.95947 ], [ -90.47067, 19.98577 ], [ -90.46256, 20.01403 ], [ -90.49123, 20.06126 ], [ -90.47877, 20.11321 ], [ -90.49515, 20.1601 ], [ -90.47739, 20.18438 ], [ -90.49668, 20.34092 ], [ -90.48286, 20.37451 ], [ -90.50262, 20.46412 ], [ -90.47498, 20.47058 ], [ -90.50215, 20.47182 ], [ -90.5023, 20.49771 ], [ -90.44818, 20.63373 ], [ -90.44332, 20.71919 ], [ -90.45255, 20.68573 ], [ -90.45401, 20.70331 ], [ -90.43117, 20.74658 ], [ -90.40748, 20.76827 ], [ -90.41447, 20.81844 ], [ -90.36932, 20.9536 ], [ -90.30572, 21.03175 ], [ -90.09461, 21.15555 ], [ -89.99223, 21.17813 ], [ -89.84513, 21.25081 ], [ -89.66965, 21.28509 ], [ -89.68137, 21.34887 ], [ -89.66442, 21.28841 ], [ -88.84062, 21.39787 ], [ -88.69474, 21.45107 ], [ -88.61599, 21.5222 ], [ -88.37657, 21.56776 ], [ -88.32252, 21.55045 ], [ -88.26991, 21.55566 ], [ -88.14502, 21.62395 ], [ -87.96291, 21.61013 ], [ -87.73836, 21.53039 ], [ -87.48833, 21.48518 ], [ -87.47607, 21.45793 ], [ -87.42927, 21.46825 ], [ -87.3411, 21.43227 ], [ -87.27213, 21.43234 ], [ -87.27386, 21.44328 ], [ -87.23246, 21.41861 ], [ -87.21564, 21.44326 ], [ -87.18837, 21.43971 ], [ -87.15837, 21.46325 ], [ -87.11173, 21.47122 ], [ -87.09886, 21.5322 ], [ -87.12871, 21.55454 ], [ -87.08575, 21.58941 ], [ -87.0103, 21.55744 ], [ -86.97483, 21.51054 ], [ -86.9702, 21.53133 ], [ -86.99005, 21.54328 ], [ -86.99766, 21.54135 ], [ -86.98481, 21.55105 ], [ -86.99279, 21.56224 ], [ -86.97593, 21.5476 ], [ -86.95245, 21.4886 ], [ -86.88674, 21.40355 ], [ -86.85092, 21.25586 ], [ -86.82346, 21.24399 ], [ -86.82203, 21.31407 ], [ -86.79216, 21.34211 ], [ -86.82792, 21.413 ], [ -86.80983, 21.41291 ], [ -86.79922, 21.3888 ], [ -86.79505, 21.38592 ], [ -86.79595, 21.40808 ], [ -86.7904, 21.34564 ], [ -86.81587, 21.28326 ], [ -86.80067, 21.23375 ], [ -86.80404, 21.16418 ], [ -86.78811, 21.14348 ], [ -86.7406, 21.1349 ], [ -86.76892, 21.08986 ], [ -86.77863, 21.03254 ], [ -86.81297, 21.02305 ], [ -86.87792, 20.8414 ], [ -86.94045, 20.78233 ], [ -86.96273, 20.73009 ], [ -87.01024, 20.70237 ], [ -87.099, 20.59277 ], [ -87.28224, 20.44606 ], [ -87.36979, 20.2856 ], [ -87.42355, 20.22624 ], [ -87.47839, 20.0769 ], [ -87.47627, 19.99899 ], [ -87.45322, 19.93404 ], [ -87.43652, 19.92765 ], [ -87.43251, 19.90869 ], [ -87.4301, 19.88684 ], [ -87.451, 19.83578 ], [ -87.47387, 19.81875 ], [ -87.46964, 19.7807 ], [ -87.48719, 19.8013 ], [ -87.4725, 19.83584 ], [ -87.45202, 19.83698 ], [ -87.43116, 19.88826 ], [ -87.43531, 19.91523 ], [ -87.4674, 19.94507 ], [ -87.46421, 19.89469 ], [ -87.44745, 19.89021 ], [ -87.45937, 19.85839 ], [ -87.47388, 19.8561 ], [ -87.49772, 19.8069 ], [ -87.54544, 19.79578 ], [ -87.55485, 19.80852 ], [ -87.57891, 19.79037 ], [ -87.64302, 19.68777 ], [ -87.65339, 19.64856 ], [ -87.66678, 19.61649 ], [ -87.6894, 19.62623 ], [ -87.66068, 19.63426 ], [ -87.6491, 19.6881 ], [ -87.74228, 19.66366 ], [ -87.74847, 19.59948 ], [ -87.70758, 19.57306 ], [ -87.70212, 19.5502 ], [ -87.67684, 19.56922 ], [ -87.66936, 19.53755 ], [ -87.68754, 19.53173 ], [ -87.6638, 19.5294 ], [ -87.6695, 19.501 ], [ -87.65044, 19.50517 ], [ -87.61008, 19.5541 ], [ -87.55042, 19.5661 ], [ -87.53146, 19.56196 ], [ -87.5257, 19.5405 ], [ -87.4924, 19.5707 ], [ -87.5099, 19.5764 ], [ -87.50479, 19.59013 ], [ -87.4954, 19.5858 ], [ -87.4517, 19.596 ], [ -87.45445, 19.64802 ], [ -87.41064, 19.59196 ], [ -87.4402, 19.46903 ], [ -87.52507, 19.39563 ], [ -87.54541, 19.39158 ], [ -87.54952, 19.39362 ], [ -87.55506, 19.39144 ], [ -87.56456, 19.39389 ], [ -87.53987, 19.4031 ], [ -87.54783, 19.41839 ], [ -87.54189, 19.41991 ], [ -87.5354, 19.42905 ], [ -87.55387, 19.42701 ], [ -87.63595, 19.37343 ], [ -87.6692, 19.295 ], [ -87.6584, 19.2741 ], [ -87.68685, 19.23475 ], [ -87.6736, 19.22795 ], [ -87.68301, 19.20502 ], [ -87.63776, 19.17715 ], [ -87.57782, 19.26985 ], [ -87.59391, 19.25046 ], [ -87.61199, 19.24012 ], [ -87.55621, 19.29609 ], [ -87.48879, 19.32622 ], [ -87.44556, 19.31171 ], [ -87.53724, 19.20798 ], [ -87.55345, 19.07428 ], [ -87.62743, 18.93966 ], [ -87.66935, 18.76338 ], [ -87.72523, 18.66854 ], [ -87.73995, 18.54547 ], [ -87.76206, 18.49693 ], [ -87.76411, 18.41783 ], [ -87.82799, 18.31028 ], [ -87.84429, 18.19094 ], [ -87.86751, 18.18824 ], [ -87.90243, 18.14269 ], [ -87.92545, 18.16024 ], [ -88.0303, 18.16036 ], [ -88.03037, 18.41479 ], [ -88.24963, 18.41555 ], [ -88.25009, 18.47307 ], [ -88.32685, 18.49018 ], [ -88.38013, 18.47895 ], [ -88.40239, 18.49666 ], [ -88.44714, 18.47559 ], [ -88.47642, 18.49467 ], [ -88.52059, 18.45925 ], [ -88.55164, 18.37615 ], [ -88.54438, 18.36002 ], [ -88.60583, 18.29174 ], [ -88.61554, 18.22328 ], [ -88.69756, 18.18242 ], [ -88.68009, 18.16018 ], [ -88.71861, 18.10883 ], [ -88.71669, 18.06053 ], [ -88.76665, 18.0343 ], [ -88.78445, 17.97986 ], [ -88.85943, 17.92519 ], [ -88.86028, 17.89411 ], [ -88.92046, 17.91581 ], [ -88.94478, 17.95913 ], [ -88.98722, 17.94728 ], [ -89.00062, 17.98443 ], [ -89.03752, 18.00512 ], [ -89.13397, 17.97122 ], [ -89.15196, 17.94026 ], [ -89.15171, 17.81561 ], [ -90.98764, 17.81547 ], [ -90.98746, 17.25102 ], [ -91.4397, 17.25097 ], [ -91.43455, 17.2329 ], [ -91.41843, 17.20905 ], [ -91.35475, 17.19077 ], [ -91.34787, 17.15943 ], [ -91.32445, 17.18275 ], [ -91.26645, 17.17013 ], [ -91.26694, 17.10788 ], [ -91.22696, 17.09506 ], [ -91.17525, 17.0157 ], [ -91.12276, 17.00338 ], [ -91.12005, 16.97753 ], [ -91.06448, 16.92513 ], [ -91.06563, 16.90286 ], [ -91.00711, 16.88618 ], [ -90.98783, 16.86309 ], [ -90.98506, 16.89795 ], [ -90.96501, 16.9015 ], [ -90.95451, 16.88447 ], [ -90.97405, 16.86363 ], [ -90.93364, 16.85933 ], [ -90.92176, 16.82194 ], [ -90.87771, 16.82379 ], [ -90.84878, 16.79653 ], [ -90.80409, 16.79872 ], [ -90.80281, 16.77624 ], [ -90.71526, 16.72789 ], [ -90.6576, 16.63946 ], [ -90.65336, 16.5945 ], [ -90.66684, 16.58181 ], [ -90.64463, 16.57908 ], [ -90.64049, 16.59581 ], [ -90.6256, 16.5777 ], [ -90.64708, 16.56052 ], [ -90.64541, 16.51864 ], [ -90.61658, 16.52179 ], [ -90.60562, 16.50364 ], [ -90.63249, 16.48008 ], [ -90.59437, 16.49065 ], [ -90.58667, 16.46951 ], [ -90.54402, 16.48171 ], [ -90.54694, 16.46806 ], [ -90.5278, 16.45772 ], [ -90.51422, 16.4699 ], [ -90.4958, 16.45349 ], [ -90.47812, 16.45983 ], [ -90.48456, 16.42302 ], [ -90.42072, 16.4249 ], [ -90.40772, 16.40403 ], [ -90.38729, 16.412 ], [ -90.40182, 16.393 ], [ -90.3707, 16.36468 ], [ -90.39581, 16.37451 ], [ -90.40977, 16.36302 ], [ -90.40931, 16.3459 ], [ -90.40303, 16.36106 ], [ -90.38164, 16.33845 ], [ -90.41001, 16.32918 ], [ -90.41164, 16.30724 ], [ -90.43857, 16.3021 ], [ -90.42243, 16.25918 ], [ -90.44547, 16.26153 ], [ -90.45494, 16.24694 ], [ -90.42808, 16.23461 ], [ -90.45667, 16.20951 ], [ -90.45198, 16.18504 ], [ -90.4245, 16.16318 ], [ -90.44988, 16.15101 ], [ -90.42868, 16.13934 ], [ -90.42862, 16.12095 ], [ -90.45284, 16.12361 ], [ -90.45564, 16.09344 ], [ -90.4246, 16.09799 ], [ -90.44084, 16.0742 ], [ -91.73138, 16.07402 ], [ -92.21008, 15.26122 ], [ -92.0592, 15.07033 ], [ -92.08567, 15.02073 ], [ -92.12698, 15.01524 ], [ -92.15077, 14.98692 ], [ -92.13622, 14.89165 ], [ -92.18483, 14.82826 ], [ -92.16073, 14.7735 ], [ -92.16993, 14.74375 ], [ -92.14749, 14.71904 ], [ -92.14574, 14.66344 ], [ -92.17705, 14.62623 ], [ -92.18248, 14.57833 ], [ -92.22675, 14.5321 ], [ -92.41063, 14.69494 ], [ -92.95439, 15.25674 ], [ -93.4735, 15.70349 ], [ -93.84077, 15.94868 ], [ -93.9165, 15.98285 ], [ -93.96004, 15.98564 ], [ -94.29478, 16.13061 ], [ -94.48006, 16.18169 ], [ -94.69976, 16.20991 ], [ -94.86444, 16.21409 ], [ -95.06271, 16.18399 ], [ -95.14234, 16.18865 ], [ -95.15166, 16.16795 ], [ -95.1923, 16.1674 ], [ -95.19795, 16.15032 ], [ -95.20263, 16.1457 ], [ -95.19829, 16.15991 ], [ -95.23321, 16.15828 ], [ -95.24749, 16.13334 ], [ -95.28104, 16.12047 ], [ -95.27854, 16.11088 ], [ -95.27539, 16.10799 ], [ -95.27566, 16.1074 ], [ -95.35041, 16.08164 ], [ -95.37804, 16.04635 ], [ -95.3681, 16.02088 ], [ -95.42413, 15.99971 ], [ -95.43562, 15.9761 ], [ -95.56852, 15.95779 ], [ -95.66251, 15.91242 ], [ -95.77002, 15.8946 ], [ -95.77717, 15.8711 ], [ -95.95403, 15.82964 ], [ -96.0749, 15.76674 ], [ -96.09433, 15.77366 ], [ -96.09942, 15.76983 ], [ -96.09934, 15.75843 ], [ -96.12144, 15.76072 ], [ -96.12786, 15.73761 ], [ -96.20376, 15.71196 ], [ -96.23752, 15.68248 ], [ -96.42617, 15.69644 ], [ -96.49463, 15.65837 ], [ -96.55682, 15.65717 ], [ -96.69892, 15.71624 ], [ -96.86042, 15.73982 ], [ -96.93387, 15.78265 ], [ -97.02388, 15.80969 ], [ -97.0621, 15.86044 ], [ -97.21339, 15.92369 ], [ -97.33462, 15.94604 ], [ -97.4214, 15.94184 ], [ -97.52969, 15.96943 ], [ -97.65576, 15.9778 ], [ -97.67973, 15.96234 ], [ -97.7885, 15.98245 ], [ -97.96116, 16.10056 ], [ -98.20427, 16.22855 ], [ -98.42211, 16.27029 ], [ -98.54968, 16.31366 ], [ -98.77296, 16.55494 ], [ -98.8417, 16.5485 ], [ -98.85695, 16.52825 ], [ -98.90586, 16.53443 ], [ -99.33289, 16.65845 ], [ -99.65485, 16.6954 ], [ -99.74716, 16.73691 ], [ -99.81737, 16.7888 ], [ -99.84513, 16.78431 ], [ -99.85906, 16.79624 ], [ -99.83703, 16.80571 ], [ -99.87652, 16.81455 ], [ -99.8513, 16.8367 ], [ -99.86209, 16.85513 ], [ -99.89776, 16.85408 ], [ -99.91101, 16.84188 ], [ -99.89406, 16.83279 ], [ -99.91575, 16.82776 ], [ -99.92298, 16.85979 ], [ -99.98988, 16.90927 ], [ -101.06109, 17.26601 ], [ -101.05671, 17.30758 ], [ -101.1742, 17.38948 ], [ -101.20357, 17.42705 ], [ -101.45705, 17.52579 ], [ -101.4436, 17.5639 ], [ -101.49073, 17.61098 ], [ -101.5168, 17.6241 ], [ -101.55266, 17.6116 ], [ -101.55136, 17.63869 ], [ -101.57267, 17.62348 ], [ -101.60639, 17.66065 ], [ -101.64916, 17.66463 ], [ -101.64749, 17.70116 ], [ -101.6672, 17.73402 ], [ -101.74764, 17.79319 ], [ -101.7852, 17.86596 ], [ -101.95957, 17.96518 ], [ -102.03322, 17.98798 ], [ -102.0967, 17.98355 ], [ -102.13976, 17.93621 ], [ -102.19175, 17.91554 ], [ -102.31015, 17.96984 ], [ -102.4838, 18.01874 ], [ -102.75913, 18.06988 ], [ -103.0312, 18.18809 ], [ -103.11162, 18.19095 ], [ -103.33844, 18.2707 ], [ -103.36188, 18.26497 ], [ -103.51081, 18.34429 ], [ -103.58309, 18.50591 ], [ -103.71188, 18.59701 ], [ -103.68557, 18.62481 ], [ -103.70748, 18.66028 ], [ -103.80342, 18.74891 ], [ -103.98318, 18.87258 ], [ -104.16081, 18.96268 ], [ -104.33206, 19.01762 ], [ -104.33007, 19.05116 ], [ -104.30572, 19.0569 ], [ -104.30384, 19.07153 ], [ -104.33384, 19.10224 ], [ -104.35415, 19.09104 ], [ -104.35695, 19.11613 ], [ -104.39492, 19.11386 ], [ -104.39545, 19.08512 ], [ -104.41123, 19.10655 ], [ -104.43847, 19.09857 ], [ -104.43642, 19.08605 ], [ -104.44172, 19.08326 ], [ -104.45147, 19.10848 ], [ -104.48938, 19.12455 ], [ -104.69801, 19.17551 ], [ -104.68554, 19.20676 ], [ -104.73401, 19.2217 ], [ -104.73271, 19.23938 ], [ -104.80892, 19.2332 ], [ -104.80945, 19.25861 ], [ -104.78866, 19.28178 ], [ -104.80285, 19.30155 ], [ -104.83271, 19.30705 ], [ -104.83697, 19.28977 ], [ -104.87411, 19.28037 ], [ -104.95336, 19.32195 ], [ -105.03181, 19.38808 ], [ -105.01956, 19.42077 ], [ -105.03241, 19.44456 ], [ -105.07312, 19.4711 ], [ -105.05751, 19.47446 ], [ -105.06068, 19.49564 ], [ -105.0815, 19.50541 ], [ -105.08895, 19.56045 ], [ -105.11954, 19.58733 ], [ -105.14231, 19.57508 ], [ -105.1527, 19.60351 ], [ -105.19952, 19.62126 ], [ -105.26438, 19.67932 ], [ -105.26355, 19.6956 ], [ -105.33034, 19.76636 ], [ -105.34464, 19.80491 ], [ -105.50544, 20.01273 ], [ -105.54956, 20.09457 ], [ -105.54275, 20.18485 ], [ -105.55432, 20.22484 ], [ -105.65616, 20.31771 ], [ -105.69496, 20.40923 ], [ -105.67235, 20.40739 ], [ -105.67127, 20.42588 ], [ -105.60415, 20.47577 ], [ -105.31658, 20.51152 ], [ -105.24462, 20.58238 ], [ -105.23432, 20.63679 ], [ -105.28468, 20.67265 ], [ -105.34378, 20.75782 ], [ -105.36374, 20.76216 ], [ -105.40189, 20.7347 ], [ -105.511, 20.77197 ], [ -105.53464, 20.75741 ], [ -105.53935, 20.77078 ], [ -105.52384, 20.79059 ], [ -105.50726, 20.78231 ], [ -105.48816, 20.7955 ], [ -105.45236, 20.87495 ], [ -105.43568, 20.87359 ], [ -105.40173, 20.93138 ], [ -105.33164, 20.98575 ], [ -105.3131, 21.03494 ], [ -105.27372, 21.02309 ], [ -105.23877, 21.05636 ], [ -105.22828, 21.10357 ], [ -105.23898, 21.13229 ], [ -105.22369, 21.15905 ], [ -105.23325, 21.18068 ], [ -105.21638, 21.20501 ], [ -105.24819, 21.34729 ], [ -105.18786, 21.4583 ], [ -105.22752, 21.52338 ], [ -105.2655, 21.51207 ], [ -105.44464, 21.62472 ], [ -105.53074, 21.80789 ], [ -105.62834, 21.95772 ], [ -105.654, 22.0429 ], [ -105.63665, 22.18187 ], [ -105.67597, 22.34619 ], [ -105.81403, 22.6439 ], [ -105.9376, 22.76955 ], [ -106.03449, 22.82971 ], [ -106.2454, 23.05841 ], [ -106.39059, 23.18066 ], [ -106.40849, 23.1873 ], [ -106.42999, 23.17658 ], [ -106.42205, 23.21676 ], [ -106.49353, 23.30367 ], [ -106.4847, 23.3328 ], [ -106.6952, 23.5694 ], [ -106.81008, 23.65172 ], [ -106.7954, 23.68188 ], [ -106.88176, 23.79529 ], [ -106.8909, 23.8388 ], [ -106.9991, 23.9417 ], [ -107.19953, 24.10685 ], [ -107.64945, 24.407 ], [ -107.80008, 24.488 ], [ -107.83934, 24.55118 ], [ -107.99916, 24.65287 ], [ -108.01813, 24.68158 ], [ -108.02077, 24.73239 ], [ -108.08997, 24.81473 ], [ -108.12176, 24.82948 ], [ -108.22437, 25.01579 ], [ -108.33246, 25.10569 ], [ -108.33423, 25.12451 ], [ -108.35745, 25.16919 ], [ -108.44401, 25.25162 ], [ -108.65211, 25.34417 ], [ -108.80006, 25.36869 ], [ -108.9112, 25.4206 ], [ -109.02239, 25.43836 ], [ -109.11922, 25.545 ], [ -109.16293, 25.56083 ], [ -109.22546, 25.62609 ], [ -109.2963, 25.6454 ], [ -109.39816, 25.63868 ], [ -109.3905, 25.6696 ], [ -109.4336, 25.80941 ], [ -109.42113, 25.89389 ], [ -109.44769, 25.94899 ], [ -109.40832, 26.0585 ], [ -109.31029, 26.2025 ], [ -109.2868, 26.27942 ], [ -109.25189, 26.31218 ], [ -109.25523, 26.45005 ], [ -109.28598, 26.53548 ], [ -109.43024, 26.66832 ], [ -109.61985, 26.69554 ], [ -109.65742, 26.69096 ], [ -109.66876, 26.6733 ], [ -109.7734, 26.71078 ], [ -109.84984, 26.78997 ], [ -109.89008, 26.92247 ], [ -109.94354, 26.99026 ], [ -109.94167, 27.01796 ], [ -109.97188, 27.05708 ], [ -110.10968, 27.11025 ], [ -110.30456, 27.1545 ], [ -110.4399, 27.27134 ], [ -110.59442, 27.30946 ], [ -110.6061, 27.3468 ], [ -110.5885, 27.52812 ], [ -110.62651, 27.62028 ], [ -110.6009, 27.7005 ], [ -110.6163, 27.7792 ], [ -110.61616, 27.8093 ], [ -110.61437, 27.79565 ], [ -110.5941, 27.8156 ], [ -110.5899, 27.8455 ], [ -110.5485, 27.8321 ], [ -110.52202, 27.84104 ], [ -110.52647, 27.8508 ], [ -110.5781, 27.88236 ], [ -110.631, 27.88225 ], [ -110.64816, 27.90392 ], [ -110.66539, 27.89521 ], [ -110.64893, 27.89204 ], [ -110.61049, 27.85817 ], [ -110.65443, 27.88876 ], [ -110.72918, 27.90885 ], [ -110.85321, 27.91234 ], [ -110.79945, 27.9201 ], [ -110.82889, 27.95433 ], [ -110.90721, 27.89759 ], [ -110.85583, 27.8999 ], [ -110.867, 27.89545 ], [ -110.86399, 27.87809 ], [ -110.88105, 27.86403 ], [ -110.87602, 27.85149 ], [ -110.88999, 27.83971 ], [ -110.90339, 27.86691 ], [ -110.93281, 27.88168 ], [ -110.95034, 27.86849 ], [ -110.94902, 27.88931 ], [ -110.96665, 27.90553 ], [ -110.94659, 27.92144 ], [ -110.97062, 27.92847 ], [ -110.984, 27.95843 ], [ -111.03997, 27.95696 ], [ -111.05017, 27.94983 ], [ -111.04866, 27.94095 ], [ -111.05103, 27.94291 ], [ -111.05523, 27.94169 ], [ -111.06078, 27.93223 ], [ -111.05998, 27.92779 ], [ -111.06611, 27.94067 ], [ -111.10498, 27.93675 ], [ -111.09928, 27.96125 ], [ -111.17375, 27.99171 ], [ -111.21187, 28.04197 ], [ -111.25502, 28.05416 ], [ -111.29363, 28.13083 ], [ -111.33003, 28.1582 ], [ -111.34384, 28.20968 ], [ -111.37711, 28.2188 ], [ -111.39041, 28.27091 ], [ -111.45703, 28.31596 ], [ -111.4651, 28.3689 ], [ -111.71227, 28.45899 ], [ -111.71573, 28.49461 ], [ -111.77442, 28.60713 ], [ -111.90801, 28.70295 ], [ -111.95018, 28.75733 ], [ -111.901, 28.787 ], [ -111.97231, 28.84347 ], [ -112.03109, 28.85927 ], [ -112.0478, 28.89928 ], [ -112.10133, 28.95489 ], [ -112.17175, 28.9683 ], [ -112.15047, 28.99423 ], [ -112.16689, 29.01054 ], [ -112.1708, 29.07257 ], [ -112.18763, 29.07333 ], [ -112.16514, 29.11487 ], [ -112.1996, 29.1764 ], [ -112.23, 29.17985 ], [ -112.20904, 29.2457 ], [ -112.23316, 29.30765 ], [ -112.25837, 29.32795 ], [ -112.30099, 29.33 ], [ -112.34625, 29.31356 ], [ -112.3349, 29.2918 ], [ -112.35298, 29.32101 ], [ -112.40965, 29.34432 ], [ -112.42146, 29.37651 ], [ -112.38267, 29.44873 ], [ -112.38083, 29.48686 ], [ -112.42883, 29.51982 ], [ -112.43541, 29.55921 ], [ -112.50623, 29.62023 ], [ -112.54409, 29.69 ], [ -112.58062, 29.71181 ], [ -112.60599, 29.77894 ], [ -112.6518, 29.83468 ], [ -112.66554, 29.89166 ], [ -112.74734, 29.91543 ], [ -112.7331, 30.00055 ], [ -112.76147, 30.06236 ], [ -112.75961, 30.19856 ], [ -112.81821, 30.26409 ], [ -112.8644, 30.26816 ], [ -112.84598, 30.33016 ], [ -112.86463, 30.41392 ], [ -112.98763, 30.53609 ], [ -113.08427, 30.67848 ], [ -113.12717, 30.81204 ], [ -113.10106, 30.89089 ], [ -113.09645, 30.97005 ], [ -113.12841, 31.05891 ], [ -113.09194, 30.99527 ], [ -113.06205, 31.03344 ], [ -113.05896, 31.07235 ], [ -113.07751, 31.15167 ], [ -113.11027, 31.19962 ], [ -113.1204, 31.19167 ], [ -113.20715, 31.24053 ], [ -113.54536, 31.29632 ], [ -113.5584, 31.31777 ], [ -113.62461, 31.32799 ], [ -113.64388, 31.34327 ], [ -113.61126, 31.34387 ], [ -113.60919, 31.36459 ], [ -113.64031, 31.48051 ], [ -113.68114, 31.51525 ], [ -113.85248, 31.5954 ], [ -113.92, 31.5983 ], [ -113.97941, 31.63143 ], [ -113.9737, 31.5783 ], [ -113.9562, 31.5624 ], [ -113.98703, 31.52953 ], [ -114.02016, 31.53003 ], [ -114.0259, 31.4922 ], [ -114.16287, 31.49726 ], [ -114.27284, 31.54404 ], [ -114.33426, 31.59841 ], [ -114.44828, 31.64898 ], [ -114.58279, 31.75222 ], [ -114.61923, 31.7629 ], [ -114.6928, 31.76312 ], [ -114.76021, 31.81826 ], [ -114.80454, 31.81997 ], [ -114.81695, 31.72874 ], [ -114.78368, 31.63553 ], [ -114.79558, 31.61202 ], [ -114.81646, 31.60964 ], [ -114.85795, 31.50114 ], [ -114.89204, 31.26665 ], [ -114.88129, 31.23644 ], [ -114.89057, 31.15029 ], [ -114.86749, 31.09023 ], [ -114.81429, 31.05211 ], [ -114.83342, 31.01918 ], [ -114.82899, 30.99328 ], [ -114.72034, 30.93704 ], [ -114.70995, 30.90571 ], [ -114.70989, 30.84487 ], [ -114.69359, 30.81928 ], [ -114.69881, 30.63374 ], [ -114.63073, 30.48871 ], [ -114.63485, 30.3502 ], [ -114.65629, 30.28519 ], [ -114.63977, 30.26045 ], [ -114.66772, 30.19142 ], [ -114.63324, 30.12641 ], [ -114.60391, 30.10799 ], [ -114.53682, 29.97043 ], [ -114.48747, 29.94877 ], [ -114.47095, 29.91327 ], [ -114.41298, 29.89069 ], [ -114.41358, 29.84835 ], [ -114.3692, 29.80775 ], [ -114.39488, 29.808 ], [ -114.38599, 29.77708 ], [ -114.33049, 29.74252 ], [ -114.29429, 29.74279 ], [ -114.28024, 29.77231 ], [ -114.20811, 29.74385 ], [ -114.18137, 29.70808 ], [ -114.06343, 29.62859 ], [ -114.04583, 29.59606 ], [ -113.99425, 29.5776 ], [ -113.89692, 29.48484 ], [ -113.83611, 29.45587 ], [ -113.82501, 29.42945 ], [ -113.77382, 29.41053 ], [ -113.63751, 29.2834 ], [ -113.62515, 29.25286 ], [ -113.65614, 29.20854 ], [ -113.57138, 29.11686 ], [ -113.53849, 29.05796 ], [ -113.53445, 29.03228 ], [ -113.54888, 29.04016 ], [ -113.56303, 29.00777 ], [ -113.54156, 28.95583 ], [ -113.55729, 28.94693 ], [ -113.5262, 28.89327 ], [ -113.47903, 28.89454 ], [ -113.48009, 28.94775 ], [ -113.44434, 28.94676 ], [ -113.43837, 28.95968 ], [ -113.41524, 28.92341 ], [ -113.38576, 28.93963 ], [ -113.39404, 28.91523 ], [ -113.36774, 28.90353 ], [ -113.38069, 28.89452 ], [ -113.35737, 28.87398 ], [ -113.37076, 28.8385 ], [ -113.35471, 28.80439 ], [ -113.31257, 28.80314 ], [ -113.25161, 28.84053 ], [ -113.19644, 28.79229 ], [ -113.18923, 28.72999 ], [ -113.1588, 28.66007 ], [ -113.12876, 28.63264 ], [ -113.10434, 28.50608 ], [ -113.01563, 28.45738 ], [ -112.90353, 28.47524 ], [ -112.8746, 28.45039 ], [ -112.88037, 28.43443 ], [ -112.84671, 28.4409 ], [ -112.8735, 28.28223 ], [ -112.78651, 28.19614 ], [ -112.81203, 28.13583 ], [ -112.78868, 28.06826 ], [ -112.80417, 28.02419 ], [ -112.76212, 27.99641 ], [ -112.77138, 27.86199 ], [ -112.71994, 27.82545 ], [ -112.70157, 27.75178 ], [ -112.661, 27.70935 ], [ -112.63663, 27.70524 ], [ -112.59538, 27.6505 ], [ -112.4869, 27.62093 ], [ -112.35935, 27.55235 ], [ -112.33004, 27.51766 ], [ -112.30317, 27.38595 ], [ -112.24101, 27.32526 ], [ -112.19911, 27.25161 ], [ -112.21255, 27.20381 ], [ -112.09722, 27.13308 ], [ -111.95339, 27.09639 ], [ -111.94597, 27.06996 ], [ -111.98875, 27.05611 ], [ -112.01525, 26.99984 ], [ -112.00806, 26.95786 ], [ -111.95225, 26.90136 ], [ -111.97152, 26.89846 ], [ -111.97591, 26.89599 ], [ -111.98267, 26.88889 ], [ -111.95441, 26.89993 ], [ -111.90234, 26.85319 ], [ -111.81664, 26.89663 ], [ -111.74802, 26.846 ], [ -111.72102, 26.80662 ], [ -111.66633, 26.77993 ], [ -111.64698, 26.74484 ], [ -111.5616, 26.6968 ], [ -111.56729, 26.56275 ], [ -111.50273, 26.53046 ], [ -111.46048, 26.53737 ], [ -111.44214, 26.51787 ], [ -111.47051, 26.46433 ], [ -111.46903, 26.41344 ], [ -111.42456, 26.38062 ], [ -111.43395, 26.36237 ], [ -111.40316, 26.35029 ], [ -111.3866, 26.32206 ], [ -111.38301, 26.28139 ], [ -111.39767, 26.25558 ], [ -111.35437, 26.12957 ], [ -111.32387, 26.10013 ], [ -111.31911, 26.06899 ], [ -111.3455, 26.02869 ], [ -111.33846, 25.98731 ], [ -111.35865, 25.95975 ], [ -111.33676, 25.90753 ], [ -111.33337, 25.83643 ], [ -111.29206, 25.81301 ], [ -111.30833, 25.81287 ], [ -111.30627, 25.7735 ], [ -111.24292, 25.72123 ], [ -111.22394, 25.72514 ], [ -111.19334, 25.61363 ], [ -111.12151, 25.52817 ], [ -111.01678, 25.51495 ], [ -111.02478, 25.44373 ], [ -110.97963, 25.34142 ], [ -110.93312, 25.29159 ], [ -110.94618, 25.25755 ], [ -110.90662, 25.18347 ], [ -110.90763, 25.14578 ], [ -110.81551, 25.03439 ], [ -110.7572, 25.01382 ], [ -110.74976, 24.96598 ], [ -110.68529, 24.884 ], [ -110.65707, 24.80616 ], [ -110.6903, 24.70735 ], [ -110.729, 24.6687 ], [ -110.73822, 24.55272 ], [ -110.72916, 24.51453 ], [ -110.68705, 24.46296 ], [ -110.68131, 24.35687 ], [ -110.61208, 24.25649 ], [ -110.56018, 24.2113 ], [ -110.50644, 24.19477 ], [ -110.32466, 24.17509 ], [ -110.30303, 24.1815 ], [ -110.29966, 24.21168 ], [ -110.3134, 24.2506 ], [ -110.32717, 24.24441 ], [ -110.33634, 24.25823 ], [ -110.33414, 24.32899 ], [ -110.29766, 24.35236 ], [ -110.23421, 24.34409 ], [ -110.23563, 24.3173 ], [ -110.19308, 24.29291 ], [ -110.17475, 24.25279 ], [ -110.00818, 24.15944 ], [ -109.98433, 24.04374 ], [ -109.92972, 24.02872 ], [ -109.8268, 24.06057 ], [ -109.80423, 24.02124 ], [ -109.83567, 23.98507 ], [ -109.8375, 23.93275 ], [ -109.69936, 23.79899 ], [ -109.71329, 23.73812 ], [ -109.69708, 23.66262 ], [ -109.46843, 23.55462 ], [ -109.47942, 23.51917 ], [ -109.42504, 23.45033 ], [ -109.432, 23.41367 ], [ -109.41317, 23.38696 ], [ -109.43221, 23.37695 ], [ -109.42538, 23.30482 ], [ -109.45541, 23.20159 ], [ -109.53615, 23.10943 ], [ -109.70308, 23.03911 ], [ -109.7152, 23.00468 ], [ -109.79237, 22.9662 ], [ -109.84279, 22.90317 ], [ -109.91141, 22.88573 ], [ -109.89496, 22.87569 ], [ -109.9681, 22.87371 ], [ -110.06113, 22.94956 ], [ -110.10182, 23.02912 ], [ -110.16816, 23.31707 ], [ -110.26272, 23.47542 ], [ -110.33852, 23.56812 ], [ -110.59943, 23.69889 ], [ -111.0221, 24.0936 ], [ -111.27543, 24.2436 ], [ -111.44132, 24.32593 ], [ -111.57761, 24.36756 ], [ -111.69512, 24.35069 ], [ -111.71135, 24.30328 ], [ -111.74312, 24.34601 ], [ -111.87618, 24.44254 ], [ -112.10207, 24.55876 ], [ -112.11644, 24.60293 ], [ -112.1748, 24.6533 ], [ -112.165, 24.6719 ], [ -112.142, 24.6714 ], [ -112.1352, 24.6967 ], [ -112.1432, 24.7333 ], [ -112.1749, 24.7653 ], [ -112.2381, 24.78948 ], [ -112.26147, 24.77888 ], [ -112.2595, 24.7501 ], [ -112.30264, 24.79169 ], [ -112.20533, 25.01575 ], [ -112.12481, 25.28186 ], [ -112.13712, 25.29767 ], [ -112.09736, 25.48845 ], [ -112.0944, 25.68429 ], [ -112.10744, 25.78246 ], [ -112.19149, 25.98632 ], [ -112.23422, 26.03668 ], [ -112.30807, 26.07189 ], [ -112.33843, 26.16784 ], [ -112.39504, 26.23426 ], [ -112.4606, 26.2624 ], [ -112.49752, 26.2315 ], [ -112.635, 26.32111 ], [ -112.67992, 26.31531 ], [ -112.72112, 26.3651 ], [ -113.12528, 26.63715 ], [ -113.13834, 26.65977 ], [ -113.26901, 26.70362 ], [ -113.28325, 26.75316 ], [ -113.33858, 26.78668 ], [ -113.46391, 26.80833 ], [ -113.50918, 26.79153 ], [ -113.54751, 26.72024 ], [ -113.57704, 26.7047 ], [ -113.60717, 26.71367 ], [ -113.68596, 26.78086 ], [ -113.73374, 26.79946 ], [ -113.78547, 26.91734 ], [ -113.85278, 26.97038 ], [ -113.94701, 26.99944 ], [ -114.00253, 26.9711 ], [ -114.09119, 27.08709 ], [ -114.1813, 27.13852 ], [ -114.26843, 27.15089 ], [ -114.29315, 27.14103 ], [ -114.2967, 27.12286 ], [ -114.38474, 27.18023 ], [ -114.43101, 27.17445 ], [ -114.4349, 27.20977 ], [ -114.48801, 27.22872 ], [ -114.48859, 27.35041 ], [ -114.51348, 27.41717 ], [ -114.601, 27.47849 ], [ -114.71448, 27.52206 ], [ -114.73728, 27.52418 ], [ -114.79608, 27.6171 ], [ -114.83073, 27.63122 ], [ -114.8476, 27.61782 ], [ -114.87153, 27.64987 ], [ -114.93044, 27.67598 ], [ -114.95004, 27.71417 ], [ -114.98949, 27.72894 ], [ -115.00627, 27.71771 ], [ -115.02619, 27.74102 ], [ -115.05199, 27.81983 ], [ -115.0823, 27.8474 ], [ -115.05517, 27.86179 ], [ -115.00631, 27.82836 ], [ -114.86581, 27.83021 ], [ -114.83871, 27.81009 ], [ -114.73752, 27.80864 ], [ -114.63391, 27.77607 ], [ -114.53328, 27.78607 ], [ -114.49926, 27.77197 ], [ -114.39001, 27.82186 ], [ -114.33438, 27.86953 ], [ -114.29482, 27.86413 ], [ -114.26559, 27.88839 ], [ -114.26528, 27.94239 ], [ -114.13071, 28.08583 ], [ -114.06225, 28.20762 ], [ -114.07884, 28.24662 ], [ -114.10441, 28.23887 ], [ -114.12495, 28.25684 ], [ -114.06048, 28.39588 ], [ -114.04551, 28.46444 ], [ -114.09667, 28.54663 ], [ -114.16171, 28.57036 ], [ -114.15477, 28.61511 ], [ -114.17415, 28.65105 ], [ -114.23316, 28.66696 ], [ -114.24554, 28.65297 ], [ -114.27019, 28.6601 ], [ -114.26971, 28.68962 ], [ -114.28397, 28.70599 ], [ -114.34705, 28.73081 ], [ -114.34862, 28.77231 ], [ -114.3722, 28.81189 ], [ -114.39725, 28.81779 ], [ -114.41413, 28.87648 ], [ -114.43732, 28.87589 ], [ -114.44902, 28.9069 ], [ -114.48831, 28.93297 ], [ -114.52609, 28.93224 ], [ -114.53166, 28.91884 ], [ -114.56219, 28.97127 ], [ -114.59218, 28.97042 ], [ -114.62696, 29.0899 ], [ -114.6744, 29.11293 ], [ -114.71595, 29.11034 ], [ -114.74345, 29.18184 ], [ -114.81303, 29.21424 ], [ -114.96701, 29.37514 ], [ -115.07254, 29.41661 ], [ -115.18858, 29.42784 ], [ -115.25028, 29.51441 ], [ -115.37854, 29.55836 ], [ -115.45713, 29.62491 ], [ -115.50539, 29.61696 ], [ -115.58457, 29.69218 ], [ -115.61968, 29.69533 ], [ -115.69988, 29.7552 ], [ -115.68455, 29.82647 ], [ -115.70197, 29.90031 ], [ -115.74285, 29.94796 ], [ -115.78809, 29.95944 ], [ -115.8127, 29.94946 ], [ -115.78127, 30.09095 ], [ -115.80184, 30.13297 ], [ -115.79539, 30.24141 ], [ -115.81181, 30.30051 ], [ -115.84955, 30.35774 ], [ -115.91686, 30.40075 ], [ -115.97746, 30.39473 ], [ -115.99164, 30.38204 ], [ -115.98248, 30.35968 ], [ -116.00069, 30.35994 ], [ -116.01311, 30.42173 ], [ -116.04723, 30.4705 ], [ -116.02664, 30.64756 ], [ -116.05748, 30.79572 ], [ -116.20064, 30.88237 ], [ -116.26991, 30.96707 ], [ -116.33027, 30.96043 ], [ -116.33839, 30.98547 ], [ -116.30906, 31.15073 ], [ -116.36412, 31.24856 ], [ -116.45674, 31.33095 ], [ -116.52185, 31.43469 ], [ -116.57093, 31.46512 ], [ -116.60194, 31.46302 ], [ -116.60871, 31.49735 ], [ -116.64846, 31.51606 ], [ -116.6689, 31.55253 ], [ -116.69108, 31.55421 ], [ -116.69208, 31.57137 ], [ -116.65171, 31.58197 ], [ -116.66762, 31.61786 ], [ -116.64993, 31.66454 ], [ -116.74456, 31.74337 ], [ -116.65585, 31.72229 ], [ -116.61382, 31.77627 ], [ -116.61253, 31.8404 ], [ -116.62107, 31.85889 ], [ -116.63348, 31.85521 ], [ -116.62879, 31.85167 ], [ -116.62858, 31.84829 ], [ -116.62535, 31.84408 ], [ -116.62554, 31.84388 ], [ -116.69943, 31.89498 ], [ -116.74654, 31.90248 ], [ -116.7691, 31.97127 ], [ -116.85172, 31.98628 ], [ -116.88025, 32.01867 ], [ -116.88659, 32.12335 ], [ -116.92322, 32.22753 ], [ -116.95683, 32.25206 ], [ -117.02439, 32.26871 ], [ -117.09023, 32.39682 ], [ -117.12419, 32.48648 ], [ -117.12367, 32.5339 ], [ -114.71972, 32.71865 ] ], [ [ -110.86623, 27.98137 ], [ -110.85583, 27.96454 ], [ -110.858, 27.96712 ], [ -110.86952, 27.96915 ], [ -110.84517, 27.95304 ], [ -110.84165, 27.95466 ], [ -110.82933, 27.95603 ], [ -110.82708, 27.95531 ], [ -110.84841, 27.98248 ], [ -110.86623, 27.98137 ] ], [ [ -110.8424, 27.95419 ], [ -110.84488, 27.95285 ], [ -110.82774, 27.95476 ], [ -110.8424, 27.95419 ] ] ] ] } }
]
}
